{"type":"FeatureCollection","features":[{"type":"Feature","properties":{"name":"Naitasiri","code":"NT","division":"Central","confederacy":"Kubuna","mainArea":"Viti Levu (interior)","publicationCount":6,"zoteroCollectionKey_publicationLocation":"7J9R6GPB","zoteroCollectionKey_paternalProvince":"HCMNWQIT"},"geometry":{"type":"Polygon","coordinates":[[[178.0279,-17.5799],[178.0717,-17.6067],[178.0843,-17.6503],[178.0961,-17.6507],[178.0932,-17.659],[178.1422,-17.6941],[178.1629,-17.6723],[178.1861,-17.6684],[178.1906,-17.6873],[178.2025,-17.6917],[178.2359,-17.6707],[178.2567,-17.6789],[178.2702,-17.6704],[178.2756,-17.7325],[178.3032,-17.7452],[178.2994,-17.7736],[178.3322,-17.7694],[178.3351,-17.7451],[178.3717,-17.7414],[178.3869,-17.7599],[178.3905,-17.7831],[178.3759,-17.7985],[178.3404,-17.8062],[178.3388,-17.8198],[178.35,-17.8176],[178.3586,-17.834],[178.3765,-17.8406],[178.3894,-17.8158],[178.4081,-17.8172],[178.4101,-17.8775],[178.4408,-17.8758],[178.4415,-17.8959],[178.4332,-17.9009],[178.4386,-17.9123],[178.5397,-17.9559],[178.5362,-17.9736],[178.5265,-17.9714],[178.525,-18.01],[178.4996,-18.0145],[178.4948,-18.0436],[178.4655,-18.0345],[178.4454,-18.0456],[178.4538,-18.0743],[178.4329,-18.0684],[178.4256,-18.0776],[178.4219,-18.0556],[178.3996,-18.0373],[178.3966,-18.0114],[178.3954,-18.0211],[178.3854,-18.0172],[178.3533,-18.0396],[178.2753,-18.0594],[178.267,-18.079],[178.2286,-18.0786],[178.2019,-18.045],[178.2092,-18.0346],[178.1986,-18.01],[178.1525,-17.9806],[178.1164,-17.9759],[178.0979,-17.9221],[178.0598,-17.918],[178.0303,-17.9285],[178.0095,-17.917],[178.0058,-17.8993],[177.9758,-17.8782],[177.9913,-17.8472],[177.9825,-17.8299],[178.0528,-17.7583],[178.0868,-17.7572],[178.1009,-17.7313],[178.0997,-17.7085],[178.0838,-17.7007],[178.0823,-17.7099],[178.0711,-17.7053],[178.0511,-17.7231],[178.0497,-17.7389],[178.0156,-17.7634],[178.0075,-17.7603],[178.0155,-17.7173],[178.0061,-17.7189],[178.0122,-17.7038],[178.0054,-17.6858],[178.0132,-17.6693],[178.0324,-17.6641],[178.0218,-17.6556],[178.0463,-17.6287],[178.0226,-17.5985],[178.0279,-17.5799]]]}},{"type":"Feature","properties":{"name":"Namosi","code":"NM","division":"Central","confederacy":"Burebasaga","mainArea":"Viti Levu (S)","publicationCount":5,"zoteroCollectionKey_publicationLocation":"XLFD4SYR","zoteroCollectionKey_paternalProvince":"P3CJJJGQ"},"geometry":{"type":"MultiPolygon","coordinates":[[[[178.2631,-18.1736],[178.2745,-18.1772],[178.2635,-18.183],[178.2631,-18.1736]]],[[[178.0085,-17.9155],[178.0303,-17.9285],[178.0672,-17.9175],[178.1014,-17.925],[178.1164,-17.9759],[178.1525,-17.9806],[178.1863,-18.0002],[178.2074,-18.0235],[178.2019,-18.045],[178.2153,-18.0559],[178.2142,-18.0673],[178.2286,-18.0786],[178.256,-18.0804],[178.2507,-18.0871],[178.297,-18.1486],[178.2897,-18.1528],[178.2967,-18.1658],[178.2639,-18.1603],[178.2553,-18.1664],[178.2608,-18.1739],[178.2511,-18.1747],[178.2578,-18.1822],[178.235,-18.2003],[178.2022,-18.1963],[178.2089,-18.2058],[178.1603,-18.2511],[178.1719,-18.222],[178.1568,-18.2073],[178.1723,-18.2],[178.1676,-18.1826],[178.1508,-18.1822],[178.136,-18.1523],[178.1118,-18.1916],[178.0957,-18.1599],[178.1234,-18.1163],[178.1113,-18.0893],[178.0962,-18.0939],[178.0889,-18.0854],[178.0689,-18.0954],[178.0652,-18.0774],[178.0467,-18.0677],[177.9991,-18.1036],[177.9663,-18.1021],[177.9682,-18.0879],[177.9456,-18.0686],[177.9438,-18.0537],[177.923,-18.0513],[177.9088,-18.0032],[177.9621,-18.0214],[177.9847,-18.0033],[178.0115,-18.0011],[178.0256,-17.9897],[177.9968,-17.9819],[178.0063,-17.9639],[178.0312,-17.9631],[178.0265,-17.9505],[177.9887,-17.9385],[177.9875,-17.9228],[178.0085,-17.9155]]]]}},{"type":"Feature","properties":{"name":"Rewa","code":"RE","division":"Central","confederacy":"Burebasaga","mainArea":"Viti Levu (SE, Suva)","publicationCount":10,"zoteroCollectionKey_publicationLocation":"SK7NC7RI","zoteroCollectionKey_paternalProvince":"98RYV4MY"},"geometry":{"type":"MultiPolygon","coordinates":[[[[178.1567,-18.4086],[178.1506,-18.4064],[178.155,-18.4056],[178.1567,-18.4086]]],[[[178.1147,-18.3606],[178.1478,-18.3636],[178.1511,-18.3963],[178.1533,-18.37],[178.1621,-18.3693],[178.1671,-18.4026],[178.1461,-18.4028],[178.1469,-18.414],[178.1325,-18.4119],[178.1294,-18.4236],[178.0906,-18.4167],[178.0919,-18.4033],[178.1075,-18.4033],[178.0978,-18.395],[178.1014,-18.3786],[178.1147,-18.3606]]],[[[178.5156,-18.1755],[178.5155,-18.1725],[178.5183,-18.1731],[178.5156,-18.1755]]],[[[178.3313,-18.1491],[178.339,-18.1487],[178.3376,-18.152],[178.3313,-18.1491]]],[[[178.5192,-18.1904],[178.5174,-18.1874],[178.5187,-18.1864],[178.5192,-18.1904]]],[[[178.5782,-18.1579],[178.5746,-18.156],[178.5825,-18.1564],[178.5782,-18.1579]]],[[[178.5716,-18.1554],[178.5656,-18.1539],[178.5694,-18.1521],[178.5716,-18.1554]]],[[[178.5835,-18.143],[178.592,-18.1476],[178.5818,-18.1507],[178.5835,-18.143]]],[[[178.5756,-18.1331],[178.5717,-18.1317],[178.5719,-18.13],[178.5756,-18.1331]]],[[[178.5244,-18.1348],[178.5281,-18.1235],[178.5328,-18.1221],[178.5297,-18.1317],[178.5244,-18.1348]]],[[[178.3986,-18.1151],[178.3974,-18.1137],[178.399,-18.1142],[178.3986,-18.1151]]],[[[178.3957,-18.1127],[178.3963,-18.1115],[178.3968,-18.1123],[178.3957,-18.1127]]],[[[178.2507,-18.0871],[178.2686,-18.0777],[178.2664,-18.0666],[178.2758,-18.0592],[178.2928,-18.0611],[178.2975,-18.053],[178.3533,-18.0396],[178.3854,-18.0172],[178.3954,-18.0211],[178.3966,-18.0114],[178.3996,-18.0373],[178.4219,-18.0556],[178.4256,-18.0776],[178.4334,-18.0684],[178.4486,-18.0775],[178.4559,-18.0681],[178.4454,-18.0456],[178.4655,-18.0345],[178.4948,-18.0436],[178.4996,-18.0145],[178.525,-18.01],[178.5287,-17.9701],[178.5454,-17.9744],[178.5378,-17.9808],[178.5433,-17.9957],[178.5743,-18.0087],[178.581,-18.0237],[178.5991,-18.0121],[178.5939,-18.0277],[178.5532,-18.0359],[178.5728,-18.0559],[178.5717,-18.0763],[178.5934,-18.0884],[178.6084,-18.0765],[178.6378,-18.0758],[178.6503,-18.0922],[178.6317,-18.1064],[178.611,-18.1031],[178.6092,-18.1189],[178.5926,-18.1268],[178.5912,-18.1371],[178.5706,-18.1269],[178.5697,-18.1317],[178.5731,-18.1356],[178.5825,-18.1383],[178.5611,-18.1467],[178.565,-18.1519],[178.5483,-18.1397],[178.5242,-18.1436],[178.5372,-18.119],[178.5301,-18.1185],[178.5176,-18.1372],[178.524,-18.1652],[178.5192,-18.1543],[178.5105,-18.1556],[178.5179,-18.1112],[178.5142,-18.1225],[178.5076,-18.1069],[178.4911,-18.1092],[178.4344,-18.1642],[178.4211,-18.1447],[178.4299,-18.1155],[178.4008,-18.1142],[178.3896,-18.104],[178.3792,-18.1119],[178.3876,-18.1164],[178.3833,-18.1256],[178.3606,-18.1417],[178.3339,-18.1208],[178.297,-18.1486],[178.2507,-18.0871]]]]}},{"type":"Feature","properties":{"name":"Serua","code":"SE","division":"Central","confederacy":"Burebasaga","mainArea":"Viti Levu (S coast)","publicationCount":4,"zoteroCollectionKey_publicationLocation":"VIGGEGZW","zoteroCollectionKey_paternalProvince":"5545P6PD"},"geometry":{"type":"MultiPolygon","coordinates":[[[[178.0747,-18.4344],[178.0731,-18.4328],[178.075,-18.4328],[178.0747,-18.4344]]],[[[178.0031,-18.3739],[177.9972,-18.3878],[177.9846,-18.3826],[177.9899,-18.3737],[178.0031,-18.3739]]],[[[177.9256,-18.2761],[177.9228,-18.2756],[177.9247,-18.2742],[177.9256,-18.2761]]],[[[177.9096,-18.0008],[177.9079,-18.0203],[177.923,-18.0513],[177.9438,-18.0537],[177.9713,-18.1059],[177.9991,-18.1036],[178.0467,-18.0677],[178.0652,-18.0774],[178.0689,-18.0954],[178.0889,-18.0854],[178.1181,-18.0949],[178.1234,-18.1163],[178.0957,-18.1599],[178.1118,-18.1916],[178.136,-18.1523],[178.1508,-18.1822],[178.1676,-18.1826],[178.1723,-18.2],[178.1568,-18.2073],[178.1719,-18.222],[178.1561,-18.2586],[178.149,-18.2518],[178.1564,-18.2444],[178.1642,-18.2229],[178.1447,-18.2595],[178.1506,-18.2631],[178.1239,-18.27],[178.1253,-18.2542],[178.1174,-18.263],[178.0917,-18.25],[178.0588,-18.2628],[178.0131,-18.2675],[178.0014,-18.2606],[177.9859,-18.2689],[177.9822,-18.2556],[177.9765,-18.2608],[177.9679,-18.2526],[177.9511,-18.2693],[177.9402,-18.2564],[177.9296,-18.2593],[177.935,-18.2703],[177.8917,-18.276],[177.8689,-18.2511],[177.8537,-18.2644],[177.8284,-18.2519],[177.8254,-18.2374],[177.7987,-18.2389],[177.8134,-18.204],[177.8134,-18.1654],[177.8464,-18.1236],[177.792,-18.1217],[177.7856,-18.0788],[177.7724,-18.0666],[177.8064,-18.0399],[177.8092,-18.0068],[177.8272,-17.9892],[177.9096,-18.0008]]]]}},{"type":"Feature","properties":{"name":"Tailevu","code":"TL","division":"Central","confederacy":"Kubuna","mainArea":"Viti Levu (E)","publicationCount":8,"zoteroCollectionKey_publicationLocation":"BYL228Y6","zoteroCollectionKey_paternalProvince":"GK35X6M9"},"geometry":{"type":"MultiPolygon","coordinates":[[[[178.615,-17.9706],[178.6158,-17.9744],[178.6136,-17.9725],[178.615,-17.9706]]],[[[178.6128,-17.9378],[178.6208,-17.9389],[178.6225,-17.9428],[178.6139,-17.9453],[178.6128,-17.9378]]],[[[178.6214,-17.9069],[178.6197,-17.9097],[178.6183,-17.9081],[178.6214,-17.9069]]],[[[178.6111,-17.7764],[178.6103,-17.7728],[178.6122,-17.7736],[178.6111,-17.7764]]],[[[178.547,-17.9999],[178.5293,-17.9458],[178.4386,-17.9123],[178.4332,-17.9009],[178.4415,-17.8959],[178.4408,-17.8758],[178.4101,-17.8775],[178.4081,-17.8172],[178.3894,-17.8158],[178.3765,-17.8406],[178.3586,-17.834],[178.35,-17.8176],[178.3388,-17.8198],[178.3404,-17.8062],[178.3759,-17.7985],[178.3905,-17.7831],[178.3869,-17.7599],[178.3717,-17.7414],[178.3351,-17.7451],[178.3322,-17.7694],[178.2964,-17.7713],[178.3032,-17.7452],[178.2755,-17.7317],[178.2693,-17.6705],[178.2818,-17.6599],[178.2769,-17.6274],[178.2863,-17.627],[178.3313,-17.6745],[178.3683,-17.6557],[178.389,-17.6706],[178.4327,-17.6777],[178.4418,-17.6665],[178.4308,-17.6566],[178.448,-17.6241],[178.4427,-17.6127],[178.452,-17.6093],[178.4465,-17.5704],[178.4594,-17.5583],[178.4881,-17.5756],[178.5031,-17.6047],[178.5833,-17.6444],[178.5875,-17.6736],[178.5597,-17.7231],[178.5617,-17.7483],[178.5483,-17.7661],[178.5972,-17.7825],[178.5942,-17.8206],[178.5817,-17.8244],[178.6106,-17.8303],[178.6064,-17.8486],[178.6272,-17.8508],[178.6175,-17.8625],[178.6214,-17.8739],[178.6006,-17.8783],[178.6083,-17.9025],[178.5878,-17.8961],[178.5783,-17.9143],[178.6014,-17.9292],[178.5886,-17.9389],[178.6083,-17.9625],[178.5994,-17.9772],[178.6358,-17.9939],[178.6531,-18.0361],[178.6306,-18.0278],[178.6361,-18.0356],[178.6567,-18.0397],[178.6986,-17.9992],[178.6708,-18.0356],[178.6817,-18.0567],[178.6644,-18.0661],[178.6581,-18.0889],[178.6378,-18.0742],[178.6084,-18.0765],[178.5934,-18.0884],[178.5717,-18.0763],[178.5728,-18.0559],[178.5532,-18.0359],[178.5939,-18.0277],[178.5996,-18.0135],[178.5822,-18.0243],[178.5743,-18.0087],[178.547,-17.9999]]],[[[178.6044,-17.7811],[178.6058,-17.775],[178.6072,-17.7761],[178.6044,-17.7811]]],[[[178.5622,-17.7664],[178.5653,-17.7672],[178.564,-17.7683],[178.5622,-17.7664]]],[[[178.5519,-17.7658],[178.5508,-17.7631],[178.5551,-17.7638],[178.5519,-17.7658]]],[[[178.5725,-17.7594],[178.5803,-17.7531],[178.5831,-17.7544],[178.5822,-17.7561],[178.5725,-17.7594]]],[[[178.5939,-17.6439],[178.5908,-17.6439],[178.5914,-17.6417],[178.5939,-17.6439]]],[[[178.5814,-17.6361],[178.5906,-17.6408],[178.5894,-17.6419],[178.5814,-17.6361]]],[[[178.7003,-17.995],[178.7003,-17.9981],[178.6989,-17.9964],[178.7003,-17.995]]],[[[178.7044,-17.9736],[178.705,-17.9758],[178.7033,-17.975],[178.7044,-17.9736]]],[[[178.7553,-17.9719],[178.7575,-17.9742],[178.7567,-17.9753],[178.7553,-17.9719]]],[[[178.7222,-17.8106],[178.7219,-17.8058],[178.7231,-17.8103],[178.7222,-17.8106]]],[[[178.6133,-17.755],[178.6136,-17.7622],[178.6064,-17.7597],[178.6133,-17.755]]],[[[178.6102,-17.6866],[178.6079,-17.6836],[178.609,-17.683],[178.6102,-17.6866]]],[[[178.6661,-17.5819],[178.6847,-17.5769],[178.6769,-17.5906],[178.6661,-17.5819]]],[[[178.7314,-17.7867],[178.7303,-17.7894],[178.7278,-17.7875],[178.7314,-17.7867]]],[[[178.7686,-17.3831],[178.7661,-17.3789],[178.7675,-17.3775],[178.7686,-17.3831]]]]}},{"type":"Feature","properties":{"name":"Kadavu","code":"KD","division":"Eastern","confederacy":"Burebasaga","mainArea":"Kadavu Island","publicationCount":10,"zoteroCollectionKey_publicationLocation":"IDENWBGD","zoteroCollectionKey_paternalProvince":"T6NFV2BK"},"geometry":{"type":"MultiPolygon","coordinates":[[[[178.0973,-19.1584],[178.1116,-19.1697],[178.1024,-19.1789],[178.0973,-19.1584]]],[[[178.1217,-19.1664],[178.1229,-19.1644],[178.1233,-19.1653],[178.1217,-19.1664]]],[[[178.12,-19.1633],[178.1172,-19.1597],[178.1206,-19.1603],[178.12,-19.1633]]],[[[178.1183,-19.1553],[178.1183,-19.1517],[178.1194,-19.1519],[178.1183,-19.1553]]],[[[178.1082,-19.1546],[178.107,-19.1507],[178.1092,-19.1519],[178.1082,-19.1546]]],[[[177.9474,-19.129],[177.9426,-19.1268],[177.9464,-19.1256],[177.9474,-19.129]]],[[[178.1736,-19.0678],[178.1992,-19.0796],[178.176,-19.0872],[178.1736,-19.0678]]],[[[178.2158,-19.0598],[178.2147,-19.0581],[178.216,-19.0581],[178.2158,-19.0598]]],[[[178.313,-18.9331],[178.3658,-18.9333],[178.3772,-18.9508],[178.3819,-18.9444],[178.4114,-18.9486],[178.4169,-18.9881],[178.4286,-18.9767],[178.4275,-18.9633],[178.4478,-18.9558],[178.4556,-18.9697],[178.4672,-18.9667],[178.4775,-18.9792],[178.4857,-19.0007],[178.4661,-18.9989],[178.4814,-19.0144],[178.4714,-19.0127],[178.4654,-19.0244],[178.4362,-19.0187],[178.455,-19.0322],[178.4499,-19.0417],[178.4414,-19.035],[178.4409,-19.0441],[178.408,-19.0184],[178.4075,-19.054],[178.3822,-19.0395],[178.3683,-19.0591],[178.3487,-19.0589],[178.3378,-19.0429],[178.3197,-19.0588],[178.3358,-19.0328],[178.3057,-19.0269],[178.3043,-19.013],[178.3181,-19.0117],[178.2791,-18.9893],[178.282,-18.9964],[178.2647,-18.9975],[178.2638,-19.0165],[178.2334,-19.0181],[178.238,-19.0391],[178.2261,-19.035],[178.213,-19.0569],[178.1812,-19.0472],[178.1675,-19.0495],[178.1781,-19.0633],[178.1563,-19.0622],[178.1656,-19.104],[178.1874,-19.1202],[178.1806,-19.1448],[178.156,-19.1591],[178.1422,-19.1557],[178.1547,-19.14],[178.1447,-19.1208],[178.1236,-19.1442],[178.1095,-19.138],[178.1057,-19.152],[178.0865,-19.1633],[178.0772,-19.1522],[178.0652,-19.1619],[178.0335,-19.1445],[178.0081,-19.1458],[178.0154,-19.1641],[177.9922,-19.1392],[177.9686,-19.1531],[177.9711,-19.1397],[177.952,-19.1347],[177.9539,-19.1089],[178.0119,-19.1043],[178.0372,-19.0733],[178.0829,-19.0677],[178.0918,-19.0785],[178.1165,-19.0772],[178.1181,-19.0555],[178.129,-19.0451],[178.158,-19.0523],[178.1592,-18.9945],[178.175,-18.9786],[178.2053,-18.9778],[178.2542,-18.9592],[178.2569,-18.9742],[178.2739,-18.9783],[178.2805,-18.9456],[178.3044,-18.9519],[178.313,-18.9331]]],[[[178.3956,-19.0517],[178.3997,-19.0506],[178.3997,-19.0508],[178.3956,-19.0517]]],[[[178.3194,-19.0428],[178.318,-19.0433],[178.3191,-19.0413],[178.3194,-19.0428]]],[[[178.4742,-19.0247],[178.4722,-19.025],[178.4731,-19.0239],[178.4742,-19.0247]]],[[[178.2517,-19.0194],[178.255,-19.0253],[178.2503,-19.0228],[178.2517,-19.0194]]],[[[178.4719,-19.0175],[178.4726,-19.021],[178.4715,-19.0182],[178.4719,-19.0175]]],[[[178.4897,-18.8672],[178.4934,-18.8783],[178.5091,-18.871],[178.5094,-18.8931],[178.5194,-18.8994],[178.5125,-18.9217],[178.4986,-18.9167],[178.4886,-18.9264],[178.4908,-18.9394],[178.4803,-18.9394],[178.4764,-18.9242],[178.4578,-18.9172],[178.4539,-18.8967],[178.4689,-18.8897],[178.4595,-18.8811],[178.4897,-18.8672]]],[[[178.4989,-18.7994],[178.4975,-18.8008],[178.4961,-18.7989],[178.4989,-18.7994]]],[[[178.4983,-18.7917],[178.4944,-18.79],[178.4978,-18.7839],[178.4983,-18.7917]]],[[[178.5203,-18.8639],[178.5186,-18.8617],[178.5212,-18.8588],[178.5203,-18.8639]]],[[[178.5036,-18.8444],[178.4997,-18.8478],[178.4989,-18.8461],[178.5036,-18.8444]]],[[[178.5242,-18.8367],[178.5417,-18.8411],[178.5272,-18.8461],[178.5242,-18.8367]]],[[[178.52,-18.8097],[178.5231,-18.8172],[178.5214,-18.8181],[178.52,-18.8097]]],[[[178.4996,-18.7792],[178.4987,-18.7822],[178.4975,-18.7804],[178.4996,-18.7792]]],[[[178.5305,-18.8072],[178.5261,-18.7967],[178.5294,-18.7953],[178.5305,-18.8072]]],[[[178.5225,-18.77],[178.5175,-18.7667],[178.5267,-18.7531],[178.5225,-18.77]]],[[[178.5036,-18.7353],[178.5097,-18.7364],[178.5067,-18.7392],[178.5036,-18.7353]]]]}},{"type":"Feature","properties":{"name":"Lau","code":"LA","division":"Eastern","confederacy":"Tovata","mainArea":"Lau Islands","publicationCount":8,"zoteroCollectionKey_publicationLocation":"9QKTVWBY","zoteroCollectionKey_paternalProvince":"XZYJVLDN"},"geometry":{"type":"MultiPolygon","coordinates":[[[[181.2524,-21.01],[181.2517,-21.0161],[181.2461,-21.0128],[181.2478,-21.0086],[181.2524,-21.01]]],[[[181.3028,-20.6778],[181.3024,-20.6734],[181.3056,-20.6717],[181.3028,-20.6778]]],[[[181.2925,-20.6523],[181.2984,-20.6519],[181.2945,-20.6589],[181.2925,-20.6523]]],[[[181.2683,-20.635],[181.2644,-20.6532],[181.2711,-20.6581],[181.285,-20.6567],[181.2803,-20.6717],[181.2575,-20.6686],[181.25,-20.6596],[181.2553,-20.638],[181.2683,-20.635]]],[[[181.2872,-20.6306],[181.2966,-20.6394],[181.2975,-20.6466],[181.2742,-20.6342],[181.2872,-20.6306]]],[[[181.2542,-20.6294],[181.2536,-20.635],[181.2464,-20.635],[181.2485,-20.6289],[181.2542,-20.6294]]],[[[181.3189,-20.6042],[181.3219,-20.6075],[181.3164,-20.6114],[181.3189,-20.6042]]],[[[181.3161,-20.6071],[181.3129,-20.6055],[181.3129,-20.605],[181.3161,-20.6071]]],[[[181.3084,-20.6024],[181.3022,-20.6061],[181.297,-20.6058],[181.3084,-20.6024]]],[[[181.3131,-20.6009],[181.3175,-20.6036],[181.3122,-20.6014],[181.3131,-20.6009]]],[[[181.1733,-18.9833],[181.1772,-18.992],[181.1675,-18.9936],[181.167,-18.9844],[181.1733,-18.9833]]],[[[181.2489,-18.6058],[181.2453,-18.6092],[181.2433,-18.6022],[181.2458,-18.6017],[181.2489,-18.6058]]],[[[181.5086,-18.9597],[181.52,-18.9631],[181.5214,-18.9736],[181.5081,-18.9677],[181.5086,-18.9597]]],[[[181.4917,-18.9408],[181.4911,-18.9472],[181.4893,-18.9415],[181.4917,-18.9408]]],[[[181.4808,-18.9181],[181.4819,-18.9225],[181.4742,-18.93],[181.4719,-18.923],[181.4808,-18.9181]]],[[[181.3331,-18.8411],[181.3875,-18.8417],[181.405,-18.8482],[181.4022,-18.8539],[181.3778,-18.8656],[181.3781,-18.8622],[181.3701,-18.8641],[181.3636,-18.8611],[181.3761,-18.8616],[181.3794,-18.8542],[181.3742,-18.8575],[181.3664,-18.8519],[181.3619,-18.8608],[181.3542,-18.8547],[181.3225,-18.8519],[181.3242,-18.8472],[181.3306,-18.8489],[181.3331,-18.8411]]],[[[181.7697,-19.8047],[181.7655,-19.8183],[181.7436,-19.8333],[181.7486,-19.8158],[181.7636,-19.8019],[181.7697,-19.8047]]],[[[181.5789,-19.1916],[181.5769,-19.1981],[181.5967,-19.1989],[181.5975,-19.2097],[181.5767,-19.2164],[181.5695,-19.2139],[181.5689,-19.2002],[181.5789,-19.1916]]],[[[181.5775,-19.1783],[181.5756,-19.1769],[181.5778,-19.1766],[181.5775,-19.1783]]],[[[181.5864,-19.1772],[181.5886,-19.1778],[181.5872,-19.1786],[181.5864,-19.1772]]],[[[181.4431,-19.1792],[181.4426,-19.1776],[181.4441,-19.1777],[181.4431,-19.1792]]],[[[181.4517,-19.1753],[181.4587,-19.1687],[181.4619,-19.168],[181.4517,-19.1753]]],[[[181.4182,-19.1562],[181.4225,-19.1647],[181.4186,-19.158],[181.4086,-19.1581],[181.4182,-19.1562]]],[[[181.4056,-19.1606],[181.407,-19.1589],[181.4073,-19.1597],[181.4056,-19.1606]]],[[[179.7908,-19.1765],[179.7872,-19.1772],[179.7867,-19.1739],[179.7908,-19.1765]]],[[[179.7661,-19.125],[179.7803,-19.1325],[179.7825,-19.1397],[179.7779,-19.1519],[179.785,-19.1567],[179.7903,-19.1717],[179.7827,-19.1752],[179.7742,-19.1856],[179.7586,-19.1936],[179.7419,-19.1908],[179.7283,-19.1756],[179.74,-19.17],[179.7431,-19.1561],[179.7525,-19.1633],[179.7542,-19.1531],[179.7458,-19.1519],[179.7464,-19.1475],[179.74,-19.1431],[179.7386,-19.1264],[179.7578,-19.1233],[179.7608,-19.1167],[179.7661,-19.125]]],[[[179.7411,-19.1456],[179.7417,-19.1481],[179.7394,-19.1475],[179.7411,-19.1456]]],[[[181.6013,-19.1172],[181.6075,-19.1297],[181.6031,-19.1592],[181.5874,-19.1729],[181.5841,-19.1691],[181.5909,-19.162],[181.5845,-19.1675],[181.5764,-19.1619],[181.5744,-19.1678],[181.5789,-19.1678],[181.5725,-19.1767],[181.5673,-19.172],[181.5717,-19.1592],[181.568,-19.1538],[181.5808,-19.1433],[181.5853,-19.1511],[181.5873,-19.1253],[181.6013,-19.1172]]],[[[181.4485,-19.1417],[181.4547,-19.1411],[181.4502,-19.1462],[181.4485,-19.1417]]],[[[181.3881,-19.1542],[181.3826,-19.1319],[181.3839,-19.1303],[181.3881,-19.1542]]],[[[181.4078,-19.1008],[181.4297,-19.1028],[181.4375,-19.1117],[181.4297,-19.1167],[181.4217,-19.1061],[181.4075,-19.1136],[181.3992,-19.1322],[181.4061,-19.1436],[181.4096,-19.1369],[181.432,-19.143],[181.4317,-19.1502],[181.4464,-19.1625],[181.4592,-19.1563],[181.4645,-19.1483],[181.4666,-19.1377],[181.4595,-19.1292],[181.4675,-19.1336],[181.4678,-19.1416],[181.4617,-19.1597],[181.4408,-19.1753],[181.4314,-19.1711],[181.4253,-19.1513],[181.3986,-19.1581],[181.3897,-19.1511],[181.3897,-19.1291],[181.4078,-19.1008]]],[[[181.4045,-19.1386],[181.4048,-19.1302],[181.4086,-19.1364],[181.4045,-19.1386]]],[[[181.4505,-19.1192],[181.4567,-19.1236],[181.4477,-19.1242],[181.4505,-19.1192]]],[[[181.4398,-19.1136],[181.4439,-19.118],[181.4383,-19.1172],[181.4398,-19.1136]]],[[[181.4356,-19.1164],[181.436,-19.1133],[181.4372,-19.1139],[181.4356,-19.1164]]],[[[181.4208,-19.1108],[181.4176,-19.1102],[181.4211,-19.1086],[181.4208,-19.1108]]],[[[181.5267,-18.9719],[181.5233,-18.973],[181.523,-18.9714],[181.5267,-18.9719]]],[[[181.6511,-18.9567],[181.6511,-18.9544],[181.6527,-18.9552],[181.6511,-18.9567]]],[[[181.5575,-18.9311],[181.5522,-18.9525],[181.5436,-18.9556],[181.5464,-18.94],[181.5575,-18.9311]]],[[[181.5164,-18.6975],[181.525,-18.7022],[181.5211,-18.7083],[181.5164,-18.6975]]],[[[181.5169,-18.705],[181.5161,-18.6999],[181.5183,-18.7064],[181.5169,-18.705]]],[[[181.3834,-18.6778],[181.3739,-18.6883],[181.357,-18.6853],[181.3806,-18.6764],[181.3834,-18.6778]]],[[[181.3517,-18.6805],[181.3508,-18.6833],[181.3494,-18.6811],[181.3517,-18.6805]]],[[[181.497,-18.6322],[181.5078,-18.6405],[181.512,-18.6544],[181.4975,-18.6728],[181.4773,-18.6583],[181.4764,-18.6461],[181.4809,-18.6366],[181.497,-18.6322]]],[[[179.9353,-18.5586],[179.951,-18.5634],[179.9516,-18.5752],[179.9434,-18.5827],[179.917,-18.5847],[179.9169,-18.5932],[179.9113,-18.599],[179.8861,-18.6108],[179.8981,-18.6206],[179.9186,-18.6098],[179.9197,-18.6231],[179.9039,-18.6333],[179.8967,-18.6617],[179.8894,-18.6646],[179.88,-18.6614],[179.8774,-18.6469],[179.8659,-18.6359],[179.871,-18.6271],[179.8618,-18.6269],[179.8495,-18.6111],[179.8418,-18.6116],[179.8345,-18.6057],[179.8276,-18.5916],[179.8664,-18.569],[179.8842,-18.573],[179.8868,-18.5671],[179.9056,-18.5601],[179.9353,-18.5586]]],[[[181.5347,-18.4289],[181.5464,-18.4358],[181.5228,-18.4497],[181.5039,-18.4453],[181.5206,-18.4328],[181.5347,-18.4289]]],[[[181.5584,-18.4308],[181.555,-18.4303],[181.5578,-18.4292],[181.5584,-18.4308]]],[[[181.5511,-18.0108],[181.5539,-18.013],[181.5481,-18.0122],[181.5511,-18.0108]]],[[[181.1506,-21.0313],[181.1589,-21.0405],[181.1542,-21.0425],[181.1478,-21.0361],[181.1506,-21.0313]]],[[[181.0522,-18.9167],[181.0625,-18.9294],[181.0703,-18.9603],[181.0669,-18.9758],[181.0522,-18.9928],[181.0442,-18.9933],[181.0264,-18.9767],[181.0186,-18.9458],[181.0264,-18.9306],[181.0522,-18.9167]]],[[[181.12,-18.8503],[181.1017,-18.8761],[181.0786,-18.8847],[181.0789,-18.8717],[181.0908,-18.8583],[181.1056,-18.8494],[181.12,-18.8503]]],[[[180.9122,-18.7211],[180.9108,-18.7272],[180.9053,-18.725],[180.9086,-18.7195],[180.9122,-18.7211]]],[[[180.1247,-19.0193],[180.1078,-19.0261],[180.1009,-19.0261],[180.0916,-19.0218],[180.1084,-19.0247],[180.1331,-19.0092],[180.1247,-19.0193]]],[[[180.1483,-19.0011],[180.1422,-19.0058],[180.1397,-19.005],[180.1483,-19.0011]]],[[[180.1353,-18.9158],[180.1451,-18.9212],[180.1525,-18.9186],[180.1544,-18.9261],[180.1617,-18.9211],[180.1681,-18.9214],[180.1742,-18.9297],[180.1786,-18.9258],[180.1808,-18.9297],[180.1892,-18.9269],[180.2008,-18.9347],[180.2044,-18.9486],[180.2114,-18.9542],[180.1917,-18.9758],[180.175,-18.9828],[180.1745,-18.9606],[180.1794,-18.9522],[180.1712,-18.9375],[180.1558,-18.938],[180.1517,-18.9436],[180.1439,-18.9383],[180.1336,-18.9467],[180.1253,-18.9636],[180.1297,-18.9842],[180.1408,-18.9919],[180.1179,-19.0021],[180.1133,-18.9967],[180.1156,-18.9653],[180.1236,-18.9558],[180.1167,-18.9494],[180.1253,-18.9447],[180.1256,-18.9314],[180.1331,-18.9267],[180.1353,-18.9158]]],[[[180.1525,-18.9478],[180.1539,-18.945],[180.1544,-18.9466],[180.1525,-18.9478]]],[[[180.7308,-18.3614],[180.7392,-18.3692],[180.7375,-18.38],[180.73,-18.3833],[180.7205,-18.378],[180.7189,-18.3667],[180.7208,-18.3608],[180.7308,-18.3614]]],[[[180.6756,-17.7212],[180.7148,-17.7286],[180.7216,-17.7489],[180.7148,-17.7685],[180.6975,-17.7785],[180.6806,-17.7695],[180.6681,-17.7745],[180.6533,-17.7597],[180.6619,-17.7288],[180.6756,-17.7212]]],[[[180.8504,-17.424],[180.8656,-17.441],[180.867,-17.4572],[180.8533,-17.4711],[180.8297,-17.4692],[180.8164,-17.4561],[180.8184,-17.4386],[180.8267,-17.4244],[180.8504,-17.424]]],[[[180.4792,-17.4222],[180.4798,-17.4319],[180.474,-17.4403],[180.4722,-17.4361],[180.4645,-17.4369],[180.4565,-17.4428],[180.4531,-17.4369],[180.4607,-17.4321],[180.4637,-17.4212],[180.4716,-17.4187],[180.4792,-17.4222]]],[[[180.353,-17.2869],[180.3508,-17.2868],[180.3501,-17.2848],[180.353,-17.2869]]],[[[180.3689,-17.2813],[180.3661,-17.279],[180.3697,-17.2789],[180.3689,-17.2813]]],[[[180.386,-17.2769],[180.3822,-17.2758],[180.3845,-17.2741],[180.386,-17.2769]]],[[[180.4744,-17.2447],[180.4953,-17.2515],[180.4941,-17.2593],[180.4918,-17.2658],[180.4821,-17.2708],[180.4717,-17.2694],[180.4526,-17.2567],[180.4608,-17.2487],[180.4744,-17.2447]]],[[[181.3083,-18.3264],[181.3217,-18.332],[181.3197,-18.3367],[181.3083,-18.3264]]],[[[181.2906,-18.3244],[181.3064,-18.3244],[181.2953,-18.3283],[181.2906,-18.3244]]],[[[181.2072,-18.1768],[181.2356,-18.1856],[181.2414,-18.1836],[181.2569,-18.1975],[181.2509,-18.2008],[181.2531,-18.2066],[181.2564,-18.1997],[181.2653,-18.2106],[181.2647,-18.2161],[181.2522,-18.2292],[181.2195,-18.2397],[181.1969,-18.2581],[181.1944,-18.2405],[181.1711,-18.2303],[181.1606,-18.2164],[181.1678,-18.1886],[181.1825,-18.178],[181.2072,-18.1768]]],[[[181.2017,-18.1731],[181.207,-18.1756],[181.1997,-18.175],[181.2017,-18.1731]]],[[[180.9711,-18.0011],[180.9694,-18.0008],[180.9706,-17.9964],[180.9711,-18.0011]]],[[[180.9363,-17.9521],[180.9628,-17.9647],[180.9702,-17.9802],[180.9681,-18.0],[180.9631,-18.0031],[180.9433,-18.0003],[180.9214,-17.971],[180.9363,-17.9521]]],[[[181.1688,-17.7614],[181.1667,-17.7606],[181.1678,-17.7594],[181.1688,-17.7614]]],[[[181.1296,-17.3667],[181.1239,-17.3775],[181.1089,-17.3808],[181.1169,-17.3586],[181.1283,-17.3481],[181.1296,-17.3667]]],[[[181.3433,-17.735],[181.3467,-17.7328],[181.3453,-17.7369],[181.3433,-17.735]]],[[[181.1683,-17.6536],[181.1837,-17.6533],[181.1945,-17.6623],[181.1925,-17.6728],[181.2017,-17.6897],[181.1982,-17.6972],[181.1822,-17.6953],[181.1619,-17.6756],[181.1606,-17.6606],[181.1683,-17.6536]]],[[[181.2892,-17.5161],[181.2861,-17.5228],[181.285,-17.5297],[181.2814,-17.5197],[181.2859,-17.5141],[181.2892,-17.5161]]],[[[181.2237,-17.2769],[181.2235,-17.2839],[181.216,-17.2906],[181.2011,-17.2873],[181.2091,-17.2755],[181.2174,-17.273],[181.2237,-17.2769]]],[[[181.0566,-17.338],[181.0656,-17.341],[181.0372,-17.3553],[181.0249,-17.3463],[181.0303,-17.3381],[181.0346,-17.3437],[181.0407,-17.3374],[181.0486,-17.3429],[181.0566,-17.338]]],[[[181.0708,-17.3382],[181.0691,-17.341],[181.0675,-17.3399],[181.0708,-17.3382]]],[[[181.0152,-17.3279],[181.0244,-17.3443],[181.0206,-17.3472],[181.0075,-17.3295],[181.0152,-17.3279]]],[[[181.0244,-17.2966],[181.0233,-17.2994],[181.0183,-17.2966],[181.0244,-17.2966]]],[[[180.523,-17.2624],[180.5133,-17.2635],[180.5034,-17.2517],[180.5062,-17.2464],[180.523,-17.2624]]],[[[180.5004,-17.2518],[180.4982,-17.2508],[180.5001,-17.2499],[180.5004,-17.2518]]],[[[180.4633,-17.243],[180.4625,-17.2475],[180.4607,-17.2472],[180.4633,-17.243]]],[[[180.5002,-17.246],[180.5009,-17.2436],[180.5014,-17.247],[180.5002,-17.246]]],[[[180.8549,-17.2487],[180.8662,-17.2561],[180.8706,-17.2716],[180.8579,-17.284],[180.8403,-17.2822],[180.8317,-17.2703],[180.8317,-17.2525],[180.8358,-17.2469],[180.8549,-17.2487]]],[[[180.9697,-17.1578],[180.9784,-17.166],[180.9868,-17.1608],[180.9918,-17.1644],[180.9986,-17.1875],[181.0033,-17.1819],[180.9984,-17.1768],[181.0027,-17.1758],[181.0172,-17.1831],[181.0298,-17.1821],[181.0276,-17.1855],[181.0349,-17.1931],[181.0417,-17.185],[181.0561,-17.1883],[181.0681,-17.212],[181.0769,-17.2133],[181.0789,-17.2194],[181.0794,-17.225],[181.0642,-17.2414],[181.0656,-17.2475],[181.0573,-17.2589],[181.0409,-17.253],[181.022,-17.2755],[181.0131,-17.294],[181.0063,-17.3283],[181.0032,-17.3192],[180.9944,-17.3144],[180.9958,-17.28],[181.0089,-17.2688],[181.026,-17.2401],[181.0339,-17.2425],[181.0286,-17.228],[181.035,-17.2254],[181.0356,-17.2197],[181.0323,-17.2095],[181.0178,-17.1955],[181.0011,-17.1944],[180.9911,-17.2047],[180.9914,-17.1945],[180.9861,-17.1933],[180.9884,-17.1777],[180.9812,-17.1841],[180.9678,-17.1794],[180.9682,-17.1725],[180.9769,-17.1811],[180.9822,-17.1788],[180.9795,-17.1693],[180.9707,-17.1645],[180.9644,-17.1657],[180.9596,-17.1748],[180.9535,-17.17],[180.9575,-17.1597],[180.9644,-17.1647],[180.9697,-17.1578]]],[[[181.026,-17.2358],[181.0259,-17.2396],[181.0234,-17.2363],[181.026,-17.2358]]],[[[181.0004,-17.2119],[181.005,-17.2191],[181.0003,-17.2175],[181.0004,-17.2119]]],[[[180.4678,-17.2444],[180.469,-17.2416],[180.4691,-17.2442],[180.4678,-17.2444]]],[[[180.8055,-17.1242],[180.8094,-17.1195],[180.8069,-17.1259],[180.8055,-17.1242]]],[[[180.8002,-17.1176],[180.8017,-17.118],[180.8008,-17.1196],[180.8002,-17.1176]]],[[[180.705,-16.9978],[180.7092,-17.0056],[180.7138,-17.0031],[180.7238,-17.0115],[180.7341,-17.0083],[180.7407,-17.0132],[180.7304,-17.0295],[180.7158,-17.0309],[180.7075,-17.0242],[180.7033,-17.0022],[180.705,-16.9978]]],[[[181.1068,-17.1814],[181.1029,-17.192],[181.0861,-17.1966],[181.0883,-17.1889],[181.1031,-17.1769],[181.1068,-17.1814]]],[[[180.9792,-17.0578],[180.9778,-17.0608],[180.9775,-17.0583],[180.9792,-17.0578]]],[[[180.9758,-17.0553],[180.9742,-17.0564],[180.9745,-17.0547],[180.9758,-17.0553]]],[[[180.9025,-16.7403],[180.8983,-16.7469],[180.8972,-16.7539],[180.8936,-16.7472],[180.9025,-16.7403]]]]}},{"type":"Feature","properties":{"name":"Lomaiviti","code":"LM","division":"Eastern","confederacy":"Kubuna","mainArea":"Ovalau, Koro, Gau","publicationCount":8,"zoteroCollectionKey_publicationLocation":"RT8C3MFC","zoteroCollectionKey_paternalProvince":"SXEV53PH"},"geometry":{"type":"MultiPolygon","coordinates":[[[[179.2897,-17.9383],[179.3061,-17.9439],[179.3514,-18.0181],[179.3489,-18.0414],[179.3636,-18.0647],[179.3667,-18.0953],[179.3481,-18.1186],[179.3264,-18.1139],[179.3067,-18.0875],[179.305,-18.0586],[179.2833,-18.0425],[179.2739,-18.0461],[179.2711,-18.0261],[179.2533,-18.0133],[179.2525,-18.0417],[179.2439,-18.0278],[179.235,-18.0289],[179.2439,-18.0081],[179.2372,-17.9969],[179.2528,-17.9811],[179.2408,-17.9581],[179.2586,-17.9581],[179.2897,-17.9383]]],[[[179.4,-17.7769],[179.4453,-17.7881],[179.4239,-17.8014],[179.4358,-17.8292],[179.4256,-17.8467],[179.3928,-17.8178],[179.3961,-17.7883],[179.3875,-17.7958],[179.3861,-17.7864],[179.4,-17.7769]]],[[[179.3806,-17.8075],[179.3806,-17.8047],[179.3817,-17.8067],[179.3806,-17.8075]]],[[[179.3778,-17.7986],[179.3825,-17.7986],[179.3786,-17.8011],[179.3778,-17.7986]]],[[[179.1433,-17.808],[179.1412,-17.8059],[179.1417,-17.8049],[179.1433,-17.808]]],[[[179.1392,-17.8018],[179.14,-17.8025],[179.1365,-17.7988],[179.1392,-17.8018]]],[[[179.1344,-17.7908],[179.135,-17.7925],[179.1321,-17.7855],[179.1344,-17.7908]]],[[[179.1297,-17.7771],[179.1284,-17.7756],[179.1276,-17.7733],[179.1297,-17.7771]]],[[[179.1525,-17.7689],[179.1756,-17.785],[179.1681,-17.8022],[179.1503,-17.7886],[179.1567,-17.8042],[179.1425,-17.8008],[179.1478,-17.7878],[179.1367,-17.7739],[179.1525,-17.7689]]],[[[179.4269,-17.2431],[179.4367,-17.255],[179.4431,-17.3169],[179.415,-17.3758],[179.3694,-17.4],[179.3782,-17.3596],[179.3617,-17.2986],[179.3639,-17.2744],[179.3467,-17.2594],[179.4269,-17.2431]]],[[[178.7768,-17.7512],[178.7846,-17.7542],[178.7754,-17.7548],[178.7768,-17.7512]]],[[[178.7153,-17.7108],[178.7594,-17.7653],[178.7836,-17.7597],[178.7645,-17.7867],[178.7345,-17.7694],[178.7153,-17.7108]]],[[[178.7978,-17.6186],[178.8161,-17.6264],[178.8283,-17.6517],[178.8381,-17.6856],[178.8339,-17.7175],[178.8086,-17.7378],[178.7925,-17.7294],[178.79,-17.74],[178.7692,-17.7497],[178.7708,-17.7375],[178.7583,-17.7317],[178.7461,-17.7064],[178.7367,-17.6622],[178.7625,-17.6267],[178.7978,-17.6186]]],[[[179.0574,-17.681],[179.0592,-17.6822],[179.0586,-17.6829],[179.0574,-17.681]]],[[[179.0643,-17.7],[179.0598,-17.7039],[179.072,-17.6921],[179.0643,-17.7]]],[[[179.0752,-17.69],[179.0766,-17.6898],[179.0733,-17.6917],[179.0752,-17.69]]],[[[179.09,-17.673],[179.091,-17.6702],[179.0914,-17.6699],[179.0919,-17.6717],[179.09,-17.673]]],[[[179.0989,-17.6561],[179.0977,-17.656],[179.0987,-17.6547],[179.0989,-17.6561]]],[[[178.9848,-17.5935],[179.0063,-17.5975],[179.0245,-17.654],[179.0138,-17.6315],[178.9849,-17.6064],[178.9848,-17.5935]]],[[[178.9772,-17.4333],[178.9776,-17.4535],[178.9586,-17.4665],[178.9486,-17.4468],[178.9552,-17.4311],[178.9772,-17.4333]]],[[[178.948,-17.4424],[178.9456,-17.4407],[178.947,-17.4402],[178.948,-17.4424]]],[[[178.9456,-17.4204],[178.9553,-17.4205],[178.9462,-17.4324],[178.9456,-17.4204]]]]}},{"type":"Feature","properties":{"name":"Bua","code":"BU","division":"Northern","confederacy":"Tovata","mainArea":"Vanua Levu (W)","publicationCount":5,"zoteroCollectionKey_publicationLocation":"GD82B5NX","zoteroCollectionKey_paternalProvince":"4376V9SY"},"geometry":{"type":"MultiPolygon","coordinates":[[[[179.0972,-17.1089],[179.1103,-17.1081],[179.0922,-17.115],[179.0972,-17.1089]]],[[[178.8408,-16.6058],[178.8383,-16.6169],[178.8742,-16.6399],[178.8802,-16.6786],[178.8943,-16.699],[178.8829,-16.7039],[178.8835,-16.7224],[178.8525,-16.7291],[178.858,-16.7479],[178.8892,-16.7523],[178.8974,-16.7619],[178.9191,-16.7398],[178.9302,-16.7396],[178.9483,-16.7625],[178.962,-16.7588],[178.9687,-16.8055],[178.9983,-16.812],[179.0261,-16.8027],[179.0419,-16.8105],[179.0468,-16.8204],[179.0403,-16.8206],[179.0195,-16.8933],[179.0346,-16.8739],[179.0481,-16.8855],[179.0689,-16.8813],[179.0713,-16.9015],[179.0663,-16.9088],[179.0389,-16.9067],[179.0207,-16.9322],[179.0104,-16.9195],[179.0164,-16.9376],[178.9956,-16.9378],[179.001,-16.9255],[178.9925,-16.9151],[178.9772,-16.9084],[178.958,-16.9155],[178.9451,-16.9086],[178.9367,-16.8858],[178.9193,-16.8819],[178.9119,-16.8481],[178.9053,-16.8425],[178.9161,-16.8872],[178.8854,-16.8733],[178.8862,-16.8625],[178.8662,-16.8652],[178.8466,-16.8952],[178.8288,-16.8993],[178.8271,-16.9131],[178.7942,-16.9205],[178.8116,-16.9393],[178.7978,-16.9431],[178.806,-16.954],[178.7706,-16.965],[178.796,-16.9764],[178.7961,-16.9939],[178.7839,-17.0039],[178.7619,-16.9962],[178.7678,-17.0139],[178.7119,-17.0147],[178.6882,-16.998],[178.6445,-16.8942],[178.5673,-16.8748],[178.6114,-16.8686],[178.6247,-16.8747],[178.6122,-16.8536],[178.6169,-16.8189],[178.6023,-16.8215],[178.5806,-16.8003],[178.5023,-16.8272],[178.4756,-16.7733],[178.4772,-16.7509],[178.4883,-16.7503],[178.4918,-16.7296],[178.4975,-16.7229],[178.5066,-16.7288],[178.5017,-16.7185],[178.5137,-16.7117],[178.5293,-16.7156],[178.5178,-16.7364],[178.5235,-16.7422],[178.5392,-16.7283],[178.5371,-16.7067],[178.5563,-16.715],[178.5706,-16.665],[178.5336,-16.6751],[178.5224,-16.6483],[178.564,-16.6271],[178.595,-16.6425],[178.5854,-16.6585],[178.5997,-16.6614],[178.6197,-16.6464],[178.6422,-16.6711],[178.6832,-16.6758],[178.6984,-16.6663],[178.7017,-16.6408],[178.7189,-16.6522],[178.7556,-16.6265],[178.7623,-16.5992],[178.7885,-16.6058],[178.8044,-16.5928],[178.8022,-16.6238],[178.8136,-16.5908],[178.8408,-16.6058]]],[[[178.7397,-16.6301],[178.7411,-16.6278],[178.7414,-16.6294],[178.7397,-16.6301]]],[[[178.7248,-16.622],[178.7279,-16.6302],[178.7117,-16.6256],[178.7248,-16.622]]],[[[178.2742,-16.8297],[178.2828,-16.8391],[178.2811,-16.8408],[178.2742,-16.8297]]],[[[178.2741,-16.7906],[178.29,-16.8039],[178.295,-16.7937],[178.3109,-16.8049],[178.324,-16.7981],[178.3159,-16.8161],[178.3294,-16.8178],[178.3257,-16.8342],[178.2764,-16.8242],[178.2877,-16.8121],[178.2703,-16.7983],[178.2741,-16.7906]]],[[[178.638,-16.6639],[178.6391,-16.6606],[178.6406,-16.6615],[178.638,-16.6639]]],[[[178.6075,-16.6465],[178.606,-16.6446],[178.6083,-16.645],[178.6075,-16.6465]]],[[[178.6897,-16.6095],[178.6908,-16.6262],[178.6789,-16.6158],[178.6897,-16.6095]]],[[[178.6639,-16.6166],[178.6626,-16.6119],[178.6666,-16.6136],[178.6639,-16.6166]]],[[[178.6314,-16.5772],[178.586,-16.6028],[178.5527,-16.5976],[178.5866,-16.5781],[178.6314,-16.5772]]],[[[178.6886,-16.5711],[178.6894,-16.5736],[178.6875,-16.5722],[178.6886,-16.5711]]],[[[178.7116,-16.6015],[178.7101,-16.6101],[178.7027,-16.604],[178.7116,-16.6015]]],[[[178.7753,-16.5714],[178.7775,-16.5708],[178.7767,-16.5725],[178.7753,-16.5714]]],[[[178.7247,-16.5494],[178.7386,-16.5614],[178.7214,-16.5763],[178.6925,-16.5622],[178.713,-16.5641],[178.7247,-16.5494]]],[[[178.7291,-16.5306],[178.7303,-16.5312],[178.7289,-16.5319],[178.7291,-16.5306]]]]}},{"type":"Feature","properties":{"name":"Cakaudrove","code":"CK","division":"Northern","confederacy":"Tovata","mainArea":"Vanua Levu (E), Taveuni","publicationCount":4,"zoteroCollectionKey_publicationLocation":"NV7DXFDE","zoteroCollectionKey_paternalProvince":"FFEKNNUG"},"geometry":{"type":"MultiPolygon","coordinates":[[[[179.9987,-16.9692],[179.9682,-16.9942],[179.9192,-17.0131],[179.9083,-17.0056],[179.9046,-16.9798],[179.8901,-16.9712],[179.8867,-16.9524],[179.9213,-16.909],[179.9541,-16.8861],[179.9685,-16.8364],[180.0,-16.7919],[179.9987,-16.9692]]],[[[179.5879,-16.806],[179.5855,-16.8016],[179.5893,-16.8034],[179.5879,-16.806]]],[[[179.9986,-16.7696],[180.0,-16.7681],[180.0,-16.7706],[179.9986,-16.7696]]],[[[179.9028,-16.758],[179.9014,-16.7529],[179.9021,-16.7526],[179.9028,-16.758]]],[[[179.2841,-16.8236],[179.2854,-16.8241],[179.2848,-16.8253],[179.2841,-16.8236]]],[[[179.4376,-16.8137],[179.4371,-16.816],[179.4361,-16.8144],[179.4376,-16.8137]]],[[[179.4753,-16.8072],[179.4763,-16.8062],[179.4789,-16.8069],[179.4753,-16.8072]]],[[[179.425,-16.8056],[179.4281,-16.8038],[179.4289,-16.8042],[179.425,-16.8056]]],[[[179.3783,-16.8042],[179.3853,-16.8052],[179.3822,-16.8077],[179.3783,-16.8042]]],[[[179.4132,-16.8048],[179.4102,-16.8012],[179.4121,-16.8006],[179.4132,-16.8048]]],[[[179.5277,-16.7979],[179.5297,-16.7973],[179.5289,-16.7996],[179.5277,-16.7979]]],[[[179.3333,-16.7712],[179.3365,-16.7765],[179.3289,-16.775],[179.3333,-16.7712]]],[[[179.7133,-16.7381],[179.7131,-16.7356],[179.714,-16.7356],[179.7133,-16.7381]]],[[[179.7801,-16.733],[179.7791,-16.7306],[179.7806,-16.7313],[179.7801,-16.733]]],[[[179.7287,-16.7293],[179.7273,-16.7287],[179.7284,-16.7281],[179.7287,-16.7293]]],[[[179.9387,-16.615],[179.945,-16.6269],[179.9377,-16.6462],[179.9172,-16.6706],[179.8743,-16.6698],[179.899,-16.6543],[179.8995,-16.6328],[179.9166,-16.6267],[179.9319,-16.6406],[179.9315,-16.6177],[179.9387,-16.615]]],[[[180.1334,-16.6959],[180.1444,-16.7293],[180.1396,-16.7535],[180.1738,-16.7879],[180.1501,-16.7945],[180.1559,-16.8115],[180.13,-16.8237],[180.1178,-16.8614],[180.1218,-16.8747],[180.0913,-16.8779],[180.0,-16.9675],[180.0,-16.7919],[180.0303,-16.7702],[180.067,-16.7193],[180.0952,-16.6968],[180.1184,-16.6853],[180.1334,-16.6959]]],[[[180.233,-16.7376],[180.2603,-16.7603],[180.2882,-16.7415],[180.2941,-16.7509],[180.2852,-16.7835],[180.2614,-16.7698],[180.2478,-16.7819],[180.2517,-16.7991],[180.2232,-16.7914],[180.2169,-16.8047],[180.1984,-16.7881],[180.2225,-16.7634],[180.201,-16.7558],[180.233,-16.7376]]],[[[180.0022,-16.7686],[180.0,-16.7706],[180.0,-16.7681],[180.0022,-16.7686]]],[[[180.258,-16.7358],[180.2492,-16.7352],[180.2483,-16.7283],[180.2559,-16.7341],[180.262,-16.7247],[180.258,-16.7358]]],[[[179.1022,-16.8503],[179.1011,-16.8472],[179.1003,-16.8464],[179.1022,-16.8503]]],[[[180.3342,-16.7439],[180.3211,-16.7806],[180.3005,-16.7866],[180.3094,-16.7611],[180.2967,-16.7436],[180.325,-16.7364],[180.3342,-16.7439]]],[[[180.5444,-16.7211],[180.5475,-16.7186],[180.5456,-16.7225],[180.5444,-16.7211]]],[[[180.3264,-16.5072],[180.3239,-16.5092],[180.3253,-16.5061],[180.3264,-16.5072]]],[[[180.1472,-16.7006],[180.1425,-16.6989],[180.1431,-16.6964],[180.1472,-16.7006]]],[[[180.2978,-16.5489],[180.2953,-16.5467],[180.3,-16.5414],[180.2978,-16.5489]]],[[[180.0275,-16.5375],[180.0294,-16.5372],[180.0286,-16.5389],[180.0275,-16.5375]]],[[[180.2842,-16.4964],[180.2853,-16.5097],[180.2797,-16.5108],[180.2842,-16.4964]]],[[[180.2973,-16.4966],[180.3111,-16.5046],[180.3051,-16.5067],[180.2973,-16.4966]]],[[[180.3123,-16.496],[180.3186,-16.501],[180.3108,-16.4969],[180.3123,-16.496]]],[[[180.3313,-16.4571],[180.325,-16.4663],[180.3254,-16.4576],[180.3313,-16.4571]]],[[[180.581,-16.3356],[180.5825,-16.3336],[180.5834,-16.3346],[180.581,-16.3356]]],[[[179.6246,-16.5303],[179.6265,-16.5294],[179.6269,-16.5308],[179.6246,-16.5303]]],[[[179.9984,-16.5291],[179.9797,-16.5414],[179.9711,-16.5342],[179.9772,-16.5075],[180.0,-16.4808],[179.9984,-16.5291]]],[[[179.1441,-16.764],[179.1392,-16.7629],[179.1394,-16.7607],[179.1441,-16.764]]],[[[179.5806,-16.7384],[179.578,-16.7351],[179.5838,-16.7333],[179.5806,-16.7384]]],[[[179.192,-16.7106],[179.1939,-16.7086],[179.1943,-16.7123],[179.192,-16.7106]]],[[[179.0468,-16.8189],[179.0266,-16.8028],[178.9983,-16.812],[178.9644,-16.8003],[178.9596,-16.7532],[178.9776,-16.7479],[178.9801,-16.712],[178.9957,-16.6884],[178.9846,-16.6723],[179.0044,-16.6422],[179.0187,-16.6611],[179.043,-16.6599],[179.0452,-16.6755],[179.035,-16.682],[179.051,-16.7021],[179.0744,-16.6977],[179.0777,-16.6709],[179.1105,-16.657],[179.1284,-16.661],[179.1389,-16.6525],[179.1479,-16.6604],[179.1619,-16.6491],[179.1831,-16.6603],[179.2068,-16.6588],[179.2204,-16.6107],[179.2433,-16.6115],[179.2708,-16.5976],[179.2867,-16.6085],[179.3122,-16.6007],[179.3189,-16.5777],[179.3071,-16.5676],[179.3383,-16.5463],[179.3339,-16.5411],[179.3559,-16.5241],[179.3627,-16.5059],[179.4016,-16.5112],[179.3942,-16.5243],[179.4071,-16.5228],[179.4139,-16.5329],[179.4416,-16.5211],[179.4861,-16.529],[179.4893,-16.518],[179.4769,-16.5157],[179.4633,-16.4905],[179.4972,-16.4513],[179.4979,-16.4401],[179.4876,-16.434],[179.4946,-16.4187],[179.5423,-16.3776],[179.541,-16.4024],[179.5543,-16.4013],[179.5506,-16.4124],[179.5629,-16.4055],[179.5692,-16.4316],[179.5816,-16.427],[179.5786,-16.4023],[179.5925,-16.3799],[179.6176,-16.3776],[179.633,-16.3636],[179.6634,-16.3762],[179.7206,-16.3811],[179.7472,-16.3361],[179.7857,-16.3116],[179.7948,-16.3178],[179.803,-16.2948],[179.8478,-16.2436],[179.8944,-16.2087],[179.9242,-16.1987],[179.931,-16.1859],[180.0,-16.1546],[179.9988,-16.1708],[179.9608,-16.1853],[179.9406,-16.2071],[179.9068,-16.2153],[179.8924,-16.2374],[179.8798,-16.2348],[179.849,-16.2734],[179.8336,-16.2773],[179.8322,-16.3045],[179.8081,-16.3501],[179.7673,-16.3975],[179.7658,-16.4112],[179.7555,-16.413],[179.7374,-16.4581],[179.7095,-16.4816],[179.6426,-16.5037],[179.6309,-16.5249],[179.5776,-16.5477],[179.5764,-16.5616],[179.5644,-16.5682],[179.5759,-16.5846],[179.565,-16.5842],[179.563,-16.5992],[179.5506,-16.6058],[179.5609,-16.6199],[179.5194,-16.6397],[179.5241,-16.6483],[179.5077,-16.66],[179.4933,-16.6953],[179.4711,-16.7078],[179.4919,-16.7191],[179.481,-16.7258],[179.4742,-16.7709],[179.5232,-16.7564],[179.548,-16.7631],[179.5292,-16.7638],[179.5317,-16.7705],[179.558,-16.7674],[179.5706,-16.7394],[179.5831,-16.7417],[179.6125,-16.7299],[179.6353,-16.6917],[179.6792,-16.6719],[179.6786,-16.6626],[179.6953,-16.6558],[179.7092,-16.6105],[179.7659,-16.5689],[179.7907,-16.5392],[179.8803,-16.5019],[179.8937,-16.4787],[179.9208,-16.4672],[179.9267,-16.5056],[179.9177,-16.5065],[179.9156,-16.5287],[179.8928,-16.5444],[179.896,-16.5602],[179.8804,-16.5813],[179.8867,-16.5903],[179.8639,-16.6078],[179.8685,-16.6376],[179.8459,-16.6423],[179.8456,-16.6553],[179.8215,-16.6716],[179.8755,-16.6789],[179.8746,-16.697],[179.8908,-16.7137],[179.8875,-16.7281],[179.8944,-16.7147],[179.8988,-16.7302],[179.9065,-16.7217],[179.9266,-16.7304],[179.9271,-16.7644],[179.915,-16.7656],[179.9094,-16.7517],[179.8925,-16.7453],[179.8817,-16.7513],[179.8947,-16.7675],[179.89,-16.778],[179.8786,-16.7647],[179.8688,-16.7777],[179.8464,-16.7647],[179.8528,-16.7483],[179.8224,-16.7488],[179.7907,-16.7251],[179.7425,-16.7319],[179.7154,-16.7175],[179.7047,-16.7294],[179.7133,-16.7324],[179.6586,-16.7482],[179.66,-16.7567],[179.6387,-16.7556],[179.591,-16.8017],[179.5772,-16.7983],[179.5677,-16.8107],[179.5472,-16.7872],[179.5253,-16.7926],[179.5254,-16.8049],[179.4717,-16.8011],[179.4683,-16.8112],[179.444,-16.8146],[179.4249,-16.8008],[179.4122,-16.7982],[179.4084,-16.8015],[179.4086,-16.8067],[179.3815,-16.8015],[179.3757,-16.806],[179.3686,-16.7956],[179.3653,-16.8065],[179.3477,-16.8119],[179.3342,-16.8031],[179.3037,-16.8213],[179.2843,-16.8149],[179.3183,-16.7814],[179.338,-16.7779],[179.3542,-16.7675],[179.358,-16.7596],[179.3476,-16.7526],[179.3603,-16.7399],[179.3387,-16.7298],[179.3292,-16.7342],[179.3259,-16.7247],[179.313,-16.7283],[179.3147,-16.7156],[179.2707,-16.6995],[179.2741,-16.6917],[179.2684,-16.6996],[179.1856,-16.7056],[179.1586,-16.7416],[179.1206,-16.7628],[179.1114,-16.798],[179.0472,-16.8061],[179.0468,-16.8189]]],[[[180.7469,-16.2997],[180.7492,-16.3044],[180.7456,-16.3058],[180.7469,-16.2997]]],[[[180.8372,-16.0842],[180.8472,-16.0908],[180.8439,-16.0978],[180.8294,-16.0903],[180.8372,-16.0842]]],[[[180.8208,-16.0806],[180.8203,-16.085],[180.8125,-16.0853],[180.8208,-16.0806]]],[[[180.5989,-15.9478],[180.5894,-15.9564],[180.5858,-15.955],[180.5989,-15.9478]]],[[[180.0404,-16.4504],[180.0885,-16.4408],[180.0747,-16.4489],[180.0839,-16.4606],[180.0475,-16.4815],[180.0654,-16.5055],[180.0626,-16.526],[180.0083,-16.5372],[180.0123,-16.5247],[180.0,-16.5281],[180.0,-16.4808],[180.017,-16.4637],[180.0311,-16.4656],[180.0404,-16.4504]]],[[[180.1503,-16.3578],[180.1592,-16.3686],[180.1608,-16.3786],[180.1503,-16.3578]]],[[[180.0466,-16.1243],[180.0422,-16.1464],[180.0,-16.1683],[180.0005,-16.139],[180.0466,-16.1243]]],[[[180.015,-15.7103],[180.0806,-15.7283],[180.1128,-15.7561],[180.0908,-15.7581],[180.0536,-15.7275],[180.0278,-15.7272],[180.015,-15.7103]]]]}},{"type":"Feature","properties":{"name":"Macuata","code":"MC","division":"Northern","confederacy":"Tovata","mainArea":"Vanua Levu (N)","publicationCount":4,"zoteroCollectionKey_publicationLocation":"CZTEW3ST","zoteroCollectionKey_paternalProvince":"VBM6IJH4"},"geometry":{"type":"MultiPolygon","coordinates":[[[[178.7639,-16.5442],[178.7642,-16.5481],[178.7622,-16.5469],[178.7639,-16.5442]]],[[[178.7761,-16.5422],[178.7728,-16.5442],[178.7731,-16.5406],[178.7761,-16.5422]]],[[[178.7908,-16.4872],[178.8246,-16.4924],[178.8183,-16.5194],[178.7842,-16.5419],[178.7712,-16.5386],[178.7635,-16.5267],[178.8075,-16.5148],[178.8069,-16.4924],[178.7908,-16.4872]]],[[[178.8467,-16.4994],[178.8462,-16.497],[178.8484,-16.4985],[178.8467,-16.4994]]],[[[178.8424,-16.4843],[178.8376,-16.4902],[178.8239,-16.4823],[178.8383,-16.4809],[178.8372,-16.4648],[178.8424,-16.4843]]],[[[179.0339,-16.4689],[179.0362,-16.4663],[179.0364,-16.4681],[179.0339,-16.4689]]],[[[179.0286,-16.4631],[179.0204,-16.464],[179.0222,-16.4596],[179.0286,-16.4631]]],[[[178.9426,-16.4596],[178.9438,-16.4575],[178.9444,-16.459],[178.9426,-16.4596]]],[[[179.0894,-16.4435],[179.088,-16.4443],[179.0883,-16.4432],[179.0894,-16.4435]]],[[[179.1289,-16.4189],[179.1303,-16.4225],[179.1274,-16.4214],[179.1289,-16.4189]]],[[[179.0944,-16.4212],[179.0956,-16.419],[179.0965,-16.4208],[179.0944,-16.4212]]],[[[179.1405,-16.4178],[179.1436,-16.4219],[179.1392,-16.4197],[179.1405,-16.4178]]],[[[179.0874,-16.4466],[179.0855,-16.4471],[179.0855,-16.446],[179.0874,-16.4466]]],[[[178.9547,-16.4417],[178.9564,-16.4411],[178.9556,-16.4425],[178.9547,-16.4417]]],[[[179.0742,-16.4177],[179.0672,-16.4364],[179.0539,-16.4322],[179.0642,-16.4161],[179.0742,-16.4177]]],[[[179.0807,-16.4179],[179.08,-16.4121],[179.0837,-16.4121],[179.0807,-16.4179]]],[[[178.9776,-16.7479],[178.9483,-16.7625],[178.9302,-16.7396],[178.9191,-16.7398],[178.8974,-16.7619],[178.8892,-16.7523],[178.8581,-16.748],[178.8525,-16.7291],[178.8835,-16.7224],[178.8829,-16.7039],[178.8942,-16.6986],[178.8802,-16.6786],[178.8742,-16.6399],[178.8597,-16.6365],[178.8383,-16.6169],[178.8408,-16.6057],[178.8141,-16.5884],[178.8301,-16.5581],[178.854,-16.5476],[178.8622,-16.5597],[178.8615,-16.5459],[178.9058,-16.5248],[178.9084,-16.5117],[178.8975,-16.5014],[178.9056,-16.4865],[178.9189,-16.4877],[178.9206,-16.4739],[178.9337,-16.4748],[178.9453,-16.4606],[178.9531,-16.4656],[178.947,-16.4787],[178.9583,-16.4825],[178.9647,-16.4731],[178.9986,-16.4661],[179.0351,-16.4741],[179.0393,-16.4579],[179.0939,-16.4508],[179.1153,-16.4311],[179.1479,-16.4403],[179.1994,-16.4058],[179.22,-16.4175],[179.2488,-16.4089],[179.276,-16.4225],[179.2924,-16.4198],[179.3421,-16.3954],[179.356,-16.4086],[179.3379,-16.3828],[179.3539,-16.3869],[179.3489,-16.3768],[179.3702,-16.3589],[179.3837,-16.3683],[179.3922,-16.3567],[179.4019,-16.3668],[179.4014,-16.3252],[179.4144,-16.3225],[179.4167,-16.3323],[179.4256,-16.3161],[179.4364,-16.3244],[179.4532,-16.2937],[179.4476,-16.2795],[179.4734,-16.2887],[179.4633,-16.2683],[179.475,-16.2731],[179.4761,-16.2889],[179.4847,-16.2772],[179.4896,-16.2915],[179.4986,-16.2803],[179.5099,-16.2914],[179.508,-16.2729],[179.4973,-16.2641],[179.5114,-16.2562],[179.5139,-16.2647],[179.5247,-16.2598],[179.52,-16.2681],[179.5321,-16.269],[179.5302,-16.2796],[179.5382,-16.2821],[179.5311,-16.2775],[179.5347,-16.2676],[179.5339,-16.2356],[179.5486,-16.2633],[179.5656,-16.2632],[179.5612,-16.2379],[179.57,-16.225],[179.5798,-16.2343],[179.5744,-16.2511],[179.5939,-16.2539],[179.6213,-16.239],[179.6201,-16.2267],[179.6429,-16.236],[179.6486,-16.1986],[179.6685,-16.1981],[179.6627,-16.2134],[179.6739,-16.2186],[179.6809,-16.2037],[179.7284,-16.1964],[179.7306,-16.2088],[179.7447,-16.2122],[179.7384,-16.226],[179.7622,-16.2208],[179.7614,-16.2418],[179.7675,-16.2206],[179.7812,-16.2106],[179.7906,-16.2183],[179.8046,-16.2034],[179.8222,-16.2013],[179.8125,-16.2212],[179.8258,-16.2196],[179.8363,-16.2403],[179.8433,-16.2233],[179.8358,-16.2228],[179.8542,-16.2108],[179.8534,-16.2016],[179.8685,-16.2078],[179.8646,-16.197],[179.883,-16.1844],[179.8998,-16.1913],[179.9592,-16.1569],[179.9762,-16.1599],[180.0,-16.1394],[179.9917,-16.1636],[179.931,-16.1859],[179.9242,-16.1987],[179.8944,-16.2087],[179.8478,-16.2436],[179.803,-16.2948],[179.7948,-16.3178],[179.7857,-16.3116],[179.7472,-16.3361],[179.7206,-16.3811],[179.6634,-16.3762],[179.633,-16.3636],[179.6176,-16.3776],[179.5925,-16.3799],[179.5786,-16.4023],[179.5816,-16.427],[179.5692,-16.4316],[179.5629,-16.4055],[179.5506,-16.4124],[179.5543,-16.4013],[179.541,-16.4024],[179.547,-16.3811],[179.5423,-16.3776],[179.4946,-16.4187],[179.4876,-16.434],[179.4979,-16.4401],[179.4972,-16.4513],[179.4633,-16.4905],[179.4769,-16.5157],[179.4893,-16.518],[179.4861,-16.529],[179.4416,-16.5211],[179.4139,-16.5329],[179.4071,-16.5228],[179.3942,-16.5243],[179.4016,-16.5112],[179.3627,-16.5059],[179.3559,-16.5241],[179.3339,-16.5411],[179.3383,-16.5463],[179.3071,-16.5676],[179.3189,-16.5777],[179.3122,-16.6007],[179.2867,-16.6085],[179.2708,-16.5976],[179.2433,-16.6115],[179.2204,-16.6107],[179.2068,-16.6588],[179.1831,-16.6603],[179.1619,-16.6491],[179.1479,-16.6604],[179.1389,-16.6525],[179.1284,-16.661],[179.1105,-16.657],[179.0777,-16.6709],[179.0744,-16.6977],[179.051,-16.7021],[179.035,-16.682],[179.0452,-16.6755],[179.043,-16.6599],[179.0187,-16.6611],[179.0045,-16.6421],[178.9846,-16.6723],[178.9957,-16.6884],[178.9801,-16.712],[178.9776,-16.7479]]],[[[179.3353,-16.3889],[179.3383,-16.3972],[179.3294,-16.3969],[179.3353,-16.3889]]],[[[179.2169,-16.3711],[179.2137,-16.3726],[179.2121,-16.3708],[179.2169,-16.3711]]],[[[179.2247,-16.3686],[179.2197,-16.3722],[179.2186,-16.3708],[179.2247,-16.3686]]],[[[179.2029,-16.3674],[179.2092,-16.3689],[179.2106,-16.3708],[179.2029,-16.3674]]],[[[179.2308,-16.3664],[179.2281,-16.3642],[179.231,-16.3649],[179.2308,-16.3664]]],[[[179.3285,-16.3552],[179.3299,-16.3563],[179.3285,-16.3566],[179.3285,-16.3552]]],[[[179.3142,-16.3392],[179.3233,-16.3459],[179.3062,-16.3438],[179.3142,-16.3392]]],[[[179.3795,-16.3393],[179.3637,-16.3538],[179.3319,-16.3547],[179.3256,-16.3442],[179.3406,-16.333],[179.3717,-16.3361],[179.3729,-16.3254],[179.3795,-16.3393]]],[[[179.4368,-16.2721],[179.4365,-16.2694],[179.438,-16.2711],[179.4368,-16.2721]]],[[[179.4787,-16.2713],[179.4763,-16.2674],[179.4799,-16.2686],[179.4787,-16.2713]]],[[[179.5512,-16.2233],[179.5495,-16.2187],[179.5529,-16.2216],[179.5512,-16.2233]]],[[[179.5995,-16.2376],[179.5889,-16.2346],[179.5903,-16.2326],[179.5995,-16.2376]]],[[[179.6412,-16.2321],[179.6427,-16.2319],[179.6429,-16.2334],[179.6412,-16.2321]]],[[[179.6036,-16.2356],[179.5978,-16.2122],[179.6114,-16.2144],[179.6153,-16.2285],[179.6036,-16.2356]]],[[[179.7433,-16.2055],[179.7566,-16.206],[179.758,-16.2089],[179.7484,-16.2131],[179.7433,-16.2055]]],[[[179.1892,-16.3995],[179.1553,-16.4291],[179.1516,-16.4257],[179.1658,-16.403],[179.1892,-16.3995]]],[[[179.1172,-16.4131],[179.1144,-16.4092],[179.1167,-16.4092],[179.1172,-16.4131]]],[[[179.1472,-16.4078],[179.1422,-16.4069],[179.1469,-16.4047],[179.1472,-16.4078]]],[[[179.1667,-16.3886],[179.1653,-16.3986],[179.1567,-16.4036],[179.1553,-16.3922],[179.1667,-16.3886]]],[[[179.1353,-16.3711],[179.1574,-16.3781],[179.1461,-16.3977],[179.1291,-16.3901],[179.0972,-16.395],[179.0953,-16.3864],[179.1008,-16.3933],[179.1242,-16.3811],[179.1436,-16.3875],[179.1542,-16.3811],[179.1353,-16.3711]]],[[[179.2171,-16.3837],[179.2056,-16.3888],[179.1853,-16.3903],[179.2049,-16.3773],[179.2171,-16.3837]]],[[[179.1948,-16.3747],[179.1949,-16.3673],[179.1991,-16.3672],[179.1948,-16.3747]]],[[[179.1003,-16.2364],[179.0876,-16.2384],[179.0929,-16.2199],[179.0981,-16.2231],[179.1003,-16.2364]]],[[[179.8387,-16.1969],[179.8359,-16.2011],[179.8325,-16.2013],[179.8387,-16.1969]]],[[[179.6072,-16.1842],[179.6233,-16.2061],[179.6181,-16.2111],[179.6031,-16.1986],[179.6072,-16.1842]]],[[[179.5591,-16.1955],[179.5602,-16.1928],[179.5616,-16.1938],[179.5591,-16.1955]]],[[[179.5736,-16.1835],[179.5795,-16.1941],[179.572,-16.1973],[179.5736,-16.1835]]],[[[179.7801,-16.1828],[179.7777,-16.1925],[179.7732,-16.1874],[179.7801,-16.1828]]]]}},{"type":"Feature","properties":{"name":"Ba","code":"BA","division":"Western","confederacy":"Kubuna","mainArea":"Viti Levu (NW)","publicationCount":13,"zoteroCollectionKey_publicationLocation":"86N8KGIZ","zoteroCollectionKey_paternalProvince":"8PS8K3UA"},"geometry":{"type":"MultiPolygon","coordinates":[[[[177.2749,-17.725],[177.275,-17.7227],[177.2764,-17.724],[177.2749,-17.725]]],[[[177.2679,-17.6566],[177.2666,-17.6537],[177.2685,-17.6552],[177.2679,-17.6566]]],[[[177.2547,-17.6555],[177.2548,-17.6531],[177.2562,-17.6548],[177.2547,-17.6555]]],[[[177.2592,-17.4886],[177.2708,-17.49],[177.2731,-17.5028],[177.2592,-17.4886]]],[[[177.0547,-17.4914],[177.0494,-17.4942],[177.0533,-17.4864],[177.0547,-17.4914]]],[[[177.0489,-17.4622],[177.045,-17.4678],[177.0408,-17.4608],[177.0489,-17.4622]]],[[[177.0378,-17.4567],[177.0386,-17.46],[177.0364,-17.4578],[177.0378,-17.4567]]],[[[177.0494,-17.4514],[177.0558,-17.455],[177.0508,-17.4608],[177.0494,-17.4514]]],[[[177.065,-17.4364],[177.0625,-17.4397],[177.0607,-17.4376],[177.065,-17.4364]]],[[[177.1326,-17.3603],[177.1464,-17.3744],[177.1342,-17.3801],[177.1326,-17.3603]]],[[[177.1347,-17.3231],[177.1547,-17.3475],[177.1339,-17.3536],[177.1267,-17.335],[177.1347,-17.3231]]],[[[177.1403,-17.2581],[177.1514,-17.2878],[177.1378,-17.3064],[177.1419,-17.3136],[177.1324,-17.3218],[177.1182,-17.3078],[177.1043,-17.3234],[177.1064,-17.275],[177.0997,-17.2678],[177.1069,-17.2597],[177.1169,-17.2768],[177.1403,-17.2581]]],[[[177.2503,-17.4869],[177.2505,-17.4836],[177.2519,-17.4856],[177.2503,-17.4869]]],[[[177.1894,-17.1686],[177.1964,-17.1742],[177.1903,-17.1794],[177.1894,-17.1686]]],[[[177.2577,-17.1264],[177.2588,-17.1291],[177.256,-17.1252],[177.2577,-17.1264]]],[[[177.2948,-17.0645],[177.2844,-17.1022],[177.2408,-17.1311],[177.2339,-17.1544],[177.2219,-17.1292],[177.2117,-17.1539],[177.2161,-17.1681],[177.2047,-17.1561],[177.1903,-17.1617],[177.2078,-17.1381],[177.2067,-17.1239],[177.2267,-17.11],[177.2186,-17.1028],[177.2314,-17.0972],[177.2297,-17.0864],[177.2483,-17.0681],[177.2547,-17.0792],[177.2456,-17.0894],[177.2648,-17.1027],[177.2719,-17.0844],[177.282,-17.0842],[177.2836,-17.0675],[177.2948,-17.0645]]],[[[177.3586,-17.7587],[177.362,-17.7615],[177.3565,-17.7651],[177.3586,-17.7587]]],[[[177.3069,-17.6758],[177.305,-17.6709],[177.3091,-17.6736],[177.3069,-17.6758]]],[[[177.3475,-17.6153],[177.3467,-17.613],[177.3484,-17.6143],[177.3475,-17.6153]]],[[[177.3014,-17.0814],[177.3022,-17.0834],[177.3008,-17.0837],[177.3014,-17.0814]]],[[[177.435,-17.6069],[177.4331,-17.6031],[177.4344,-17.6022],[177.435,-17.6069]]],[[[177.4469,-17.5872],[177.4378,-17.5942],[177.4331,-17.5928],[177.4383,-17.585],[177.4469,-17.5872]]],[[[177.4719,-17.5371],[177.467,-17.5522],[177.4604,-17.5469],[177.4719,-17.5371]]],[[[177.4358,-16.9075],[177.4333,-16.9094],[177.4336,-16.9061],[177.4358,-16.9075]]],[[[177.2986,-17.0892],[177.2956,-17.0892],[177.2961,-17.0881],[177.2986,-17.0892]]],[[[177.3,-17.085],[177.2994,-17.0878],[177.2983,-17.0864],[177.3,-17.085]]],[[[177.3428,-16.9875],[177.3511,-16.9953],[177.3394,-16.9978],[177.3265,-17.0131],[177.3293,-17.0232],[177.3111,-17.0356],[177.3061,-17.0147],[177.3428,-16.9875]]],[[[177.327,-16.9836],[177.3276,-16.9772],[177.33,-16.98],[177.327,-16.9836]]],[[[177.3561,-16.9775],[177.3553,-16.9814],[177.3528,-16.9789],[177.3561,-16.9775]]],[[[177.3235,-16.9637],[177.3214,-16.9631],[177.3218,-16.9625],[177.3235,-16.9637]]],[[[177.178,-17.2085],[177.1709,-17.2077],[177.174,-17.2015],[177.178,-17.2085]]],[[[177.176,-17.1973],[177.1678,-17.1928],[177.1724,-17.1906],[177.176,-17.1973]]],[[[177.1847,-17.176],[177.1817,-17.1861],[177.188,-17.2015],[177.1767,-17.1904],[177.1847,-17.176]]],[[[176.9037,-17.1477],[176.9,-17.1494],[176.8999,-17.1485],[176.9037,-17.1477]]],[[[176.9333,-17.1236],[176.9275,-17.1528],[176.9103,-17.1503],[176.9244,-17.1239],[176.9333,-17.1236]]],[[[176.9479,-17.1148],[176.9361,-17.1178],[176.9242,-17.1136],[176.9437,-17.1101],[176.9479,-17.1148]]],[[[177.2864,-17.1061],[177.2889,-17.1083],[177.2869,-17.1103],[177.2864,-17.1061]]],[[[177.2883,-17.1047],[177.2903,-17.1033],[177.2903,-17.1067],[177.2883,-17.1047]]],[[[177.2908,-17.1006],[177.2903,-17.0969],[177.2914,-17.0961],[177.2908,-17.1006]]],[[[177.2953,-17.0914],[177.2944,-17.0942],[177.2931,-17.0925],[177.2953,-17.0914]]],[[[178.0279,-17.582],[178.0226,-17.5985],[178.0463,-17.6287],[178.0218,-17.6556],[178.0324,-17.6641],[178.011,-17.6715],[178.0106,-17.7044],[177.9878,-17.7097],[177.9814,-17.6909],[177.9678,-17.6937],[177.9617,-17.6827],[177.9555,-17.7011],[177.9366,-17.7092],[177.939,-17.7227],[177.9193,-17.7228],[177.8972,-17.7075],[177.9008,-17.7327],[177.8751,-17.75],[177.8418,-17.7542],[177.8291,-17.7401],[177.8135,-17.7396],[177.8248,-17.7905],[177.8483,-17.8132],[177.8373,-17.8165],[177.8396,-17.8271],[177.8198,-17.8226],[177.8262,-17.8429],[177.7967,-17.8363],[177.785,-17.853],[177.7631,-17.8514],[177.7681,-17.8658],[177.7567,-17.8749],[177.7367,-17.8679],[177.735,-17.8297],[177.7162,-17.8321],[177.6631,-17.7995],[177.6508,-17.806],[177.6627,-17.807],[177.6662,-17.8265],[177.6368,-17.8261],[177.6273,-17.8135],[177.5966,-17.8238],[177.5901,-17.815],[177.586,-17.8222],[177.6088,-17.8346],[177.5888,-17.8936],[177.6031,-17.8975],[177.6115,-17.9184],[177.5997,-17.9325],[177.6006,-17.9565],[177.5706,-17.9702],[177.5611,-17.9847],[177.5477,-17.9765],[177.5369,-17.9853],[177.5037,-17.9863],[177.4832,-17.9804],[177.4511,-17.9527],[177.4222,-17.9538],[177.3464,-17.8439],[177.3667,-17.8222],[177.3539,-17.8356],[177.365,-17.8144],[177.3642,-17.7719],[177.3853,-17.7628],[177.3842,-17.7753],[177.395,-17.7647],[177.4149,-17.772],[177.4353,-17.7525],[177.4221,-17.7283],[177.4216,-17.6978],[177.3847,-17.6817],[177.3836,-17.6369],[177.3908,-17.6358],[177.3936,-17.6478],[177.4042,-17.6347],[177.4177,-17.6353],[177.4383,-17.6036],[177.4675,-17.5906],[177.4608,-17.5728],[177.4669,-17.5625],[177.4881,-17.5794],[177.5056,-17.5719],[177.4962,-17.5486],[177.5047,-17.5461],[177.5169,-17.5078],[177.532,-17.5246],[177.5886,-17.4836],[177.609,-17.48],[177.6108,-17.4536],[177.637,-17.4519],[177.6353,-17.4444],[177.6489,-17.4547],[177.65,-17.4675],[177.6442,-17.4717],[177.6453,-17.4778],[177.6642,-17.4828],[177.6583,-17.4961],[177.6603,-17.5053],[177.6661,-17.5083],[177.6781,-17.5019],[177.6764,-17.5114],[177.6833,-17.5289],[177.6747,-17.5606],[177.6842,-17.5639],[177.6761,-17.5603],[177.685,-17.5275],[177.6794,-17.5019],[177.6731,-17.4972],[177.6625,-17.5061],[177.6664,-17.4828],[177.6453,-17.4736],[177.6514,-17.4682],[177.6547,-17.4469],[177.6714,-17.4506],[177.6739,-17.4619],[177.6817,-17.4767],[177.6736,-17.4461],[177.6918,-17.4348],[177.7104,-17.443],[177.7125,-17.437],[177.724,-17.465],[177.7255,-17.4437],[177.7417,-17.4497],[177.7483,-17.4364],[177.7565,-17.4383],[177.7518,-17.4171],[177.7639,-17.3978],[177.7808,-17.3886],[177.797,-17.3989],[177.7984,-17.3834],[177.8178,-17.3736],[177.8236,-17.3972],[177.8139,-17.4042],[177.8238,-17.413],[177.8098,-17.4215],[177.8221,-17.4371],[177.8403,-17.4278],[177.8492,-17.4029],[177.8791,-17.4085],[177.8944,-17.4256],[177.8971,-17.419],[177.9558,-17.4269],[177.9618,-17.4152],[177.9889,-17.423],[177.9771,-17.4345],[177.9771,-17.4644],[177.9905,-17.475],[177.9579,-17.5072],[177.955,-17.5292],[177.9642,-17.547],[177.9854,-17.5555],[177.9821,-17.5687],[178.0171,-17.5668],[178.0279,-17.582]]],[[[177.4756,-17.5608],[177.4778,-17.5586],[177.4767,-17.5617],[177.4756,-17.5608]]],[[[177.745,-17.3913],[177.736,-17.4001],[177.7292,-17.3956],[177.7311,-17.3912],[177.745,-17.3913]]],[[[177.8194,-17.3675],[177.8294,-17.3758],[177.8187,-17.3709],[177.8194,-17.3675]]],[[[177.4587,-16.8703],[177.4589,-16.8675],[177.4599,-16.8703],[177.4587,-16.8703]]],[[[177.4502,-16.8665],[177.4522,-16.8643],[177.4509,-16.8671],[177.4502,-16.8665]]],[[[177.4425,-16.8622],[177.4404,-16.8635],[177.4406,-16.8614],[177.4425,-16.8622]]],[[[177.465,-16.8522],[177.4789,-16.8522],[177.4653,-16.8569],[177.465,-16.8522]]],[[[177.4601,-16.8449],[177.4611,-16.8443],[177.4591,-16.8456],[177.4601,-16.8449]]],[[[177.4572,-16.7939],[177.4581,-16.8017],[177.45,-16.7958],[177.4572,-16.7939]]],[[[177.4767,-16.8428],[177.4769,-16.8486],[177.4706,-16.8456],[177.4767,-16.8428]]],[[[177.5391,-16.7741],[177.5394,-16.7726],[177.5402,-16.7742],[177.5391,-16.7741]]],[[[177.5644,-16.695],[177.593,-16.7064],[177.5581,-16.7511],[177.5628,-16.7597],[177.5305,-16.7717],[177.5228,-16.8],[177.5094,-16.8097],[177.4933,-16.8029],[177.4828,-16.8192],[177.4947,-16.8311],[177.4858,-16.8258],[177.4706,-16.8422],[177.4403,-16.8463],[177.4378,-16.8147],[177.4464,-16.8097],[177.4525,-16.8294],[177.4617,-16.8283],[177.5524,-16.7354],[177.5642,-16.735],[177.5794,-16.71],[177.5644,-16.695]]],[[[177.5617,-16.6872],[177.56,-16.6908],[177.5597,-16.6817],[177.5617,-16.6872]]],[[[177.3419,-16.9389],[177.3556,-16.9408],[177.3606,-16.9553],[177.3575,-16.9633],[177.3428,-16.957],[177.3503,-16.9772],[177.3442,-16.9828],[177.3242,-16.9642],[177.3419,-16.9389]]],[[[177.3739,-16.9408],[177.3814,-16.9508],[177.3706,-16.9728],[177.3747,-16.9528],[177.3664,-16.9481],[177.3739,-16.9408]]],[[[177.3656,-16.9192],[177.3595,-16.9347],[177.3525,-16.9322],[177.3592,-16.9175],[177.3656,-16.9192]]],[[[177.4214,-16.9158],[177.4225,-16.9127],[177.4219,-16.9164],[177.4214,-16.9158]]],[[[177.44,-16.8553],[177.4386,-16.8642],[177.4464,-16.8764],[177.4343,-16.8763],[177.4458,-16.8869],[177.4384,-16.9009],[177.4275,-16.8953],[177.4207,-16.9107],[177.407,-16.9047],[177.4144,-16.9197],[177.4047,-16.9333],[177.3831,-16.9231],[177.3919,-16.8892],[177.4097,-16.8944],[177.4156,-16.8658],[177.44,-16.8553]]],[[[177.3847,-16.8919],[177.3871,-16.8869],[177.3875,-16.8868],[177.3847,-16.8919]]],[[[177.4286,-16.9033],[177.4292,-16.9056],[177.4275,-16.9044],[177.4286,-16.9033]]],[[[177.4468,-16.8847],[177.4474,-16.887],[177.4461,-16.8862],[177.4468,-16.8847]]],[[[177.4464,-16.8787],[177.4483,-16.8775],[177.4466,-16.8792],[177.4464,-16.8787]]],[[[177.4451,-16.8702],[177.4431,-16.8692],[177.4446,-16.8689],[177.4451,-16.8702]]],[[[177.59,-16.6656],[177.595,-16.6678],[177.5945,-16.6686],[177.59,-16.6656]]],[[[177.7561,-16.6658],[177.7519,-16.6599],[177.7569,-16.6572],[177.7561,-16.6658]]],[[[177.5719,-16.6522],[177.5731,-16.6564],[177.5697,-16.6544],[177.5719,-16.6522]]]]}},{"type":"Feature","properties":{"name":"Nadroga/Navosa","code":"NN","division":"Western","confederacy":"Burebasaga","mainArea":"Viti Levu (SW)","publicationCount":12,"zoteroCollectionKey_publicationLocation":"D93UQD8B","zoteroCollectionKey_paternalProvince":"P6UU9FKL"},"geometry":{"type":"MultiPolygon","coordinates":[[[[177.6479,-18.5151],[177.6397,-18.5449],[177.6596,-18.5892],[177.6511,-18.6008],[177.6013,-18.5152],[177.628,-18.4887],[177.6479,-18.5151]]],[[[177.657,-18.4822],[177.6529,-18.4841],[177.6519,-18.4836],[177.657,-18.4822]]],[[[177.4187,-18.1415],[177.4288,-18.1412],[177.4267,-18.1458],[177.4187,-18.1415]]],[[[177.4061,-18.1347],[177.4111,-18.1386],[177.407,-18.14],[177.4061,-18.1347]]],[[[177.3167,-18.1108],[177.325,-18.1147],[177.3244,-18.1158],[177.3167,-18.1108]]],[[[177.2888,-18.0575],[177.2892,-18.054],[177.2903,-18.0542],[177.2888,-18.0575]]],[[[178.0122,-17.7038],[178.0111,-17.7655],[178.0498,-17.7388],[178.0511,-17.7231],[178.0711,-17.7053],[178.0816,-17.7101],[178.0917,-17.7007],[178.1009,-17.7313],[178.0868,-17.7572],[178.0528,-17.7583],[177.9825,-17.8299],[177.9913,-17.8472],[177.9758,-17.8782],[178.0118,-17.9074],[177.999,-17.9231],[177.9875,-17.9228],[177.9887,-17.9385],[178.0265,-17.9505],[178.0312,-17.9631],[178.0063,-17.9639],[177.9968,-17.9819],[178.0256,-17.9897],[178.0115,-18.0011],[177.9847,-18.0033],[177.9621,-18.0214],[177.9096,-17.9977],[177.8535,-17.9975],[177.8377,-17.9882],[177.8092,-18.0068],[177.8073,-18.0386],[177.7724,-18.0666],[177.7856,-18.0788],[177.792,-18.1217],[177.8464,-18.1236],[177.8134,-18.1654],[177.8134,-18.204],[177.7987,-18.2389],[177.7583,-18.2214],[177.7172,-18.2163],[177.6991,-18.203],[177.6014,-18.1872],[177.5929,-18.1771],[177.5548,-18.1813],[177.5393,-18.1688],[177.5218,-18.1761],[177.5108,-18.1388],[177.5409,-18.128],[177.5107,-18.1353],[177.5073,-18.1529],[177.5177,-18.1745],[177.4548,-18.1694],[177.4296,-18.1407],[177.4161,-18.1325],[177.3961,-18.1367],[177.3745,-18.1242],[177.3381,-18.1244],[177.2983,-18.0841],[177.3023,-18.0544],[177.3124,-18.0653],[177.303,-18.0425],[177.2838,-18.0371],[177.2874,-18.0223],[177.2519,-17.9908],[177.2617,-17.9722],[177.2431,-17.9622],[177.2758,-17.9133],[177.2603,-17.9083],[177.25,-17.8872],[177.2746,-17.8592],[177.2948,-17.8542],[177.3128,-17.8639],[177.3464,-17.8439],[177.4222,-17.9538],[177.4511,-17.9527],[177.4832,-17.9804],[177.5037,-17.9863],[177.5369,-17.9853],[177.5477,-17.9765],[177.5605,-17.9848],[177.5706,-17.9702],[177.6006,-17.9565],[177.5997,-17.9325],[177.6115,-17.9184],[177.6031,-17.8975],[177.5888,-17.8936],[177.6084,-17.8541],[177.6087,-17.8342],[177.586,-17.8222],[177.5906,-17.8147],[177.5966,-17.8238],[177.6273,-17.8135],[177.6368,-17.8261],[177.6662,-17.8265],[177.6627,-17.807],[177.6508,-17.806],[177.6631,-17.7995],[177.7162,-17.8321],[177.735,-17.8297],[177.7367,-17.8679],[177.7581,-17.8748],[177.7682,-17.8653],[177.7589,-17.854],[177.785,-17.853],[177.7967,-17.8363],[177.8262,-17.8429],[177.8198,-17.8226],[177.8396,-17.8271],[177.8373,-17.8165],[177.8477,-17.8163],[177.8248,-17.7905],[177.814,-17.7391],[177.8291,-17.7401],[177.8418,-17.7542],[177.8751,-17.75],[177.9008,-17.7327],[177.8972,-17.7075],[177.9193,-17.7228],[177.939,-17.7227],[177.9366,-17.7092],[177.9555,-17.7011],[177.9617,-17.6827],[177.9678,-17.6937],[177.9814,-17.6909],[177.9878,-17.7097],[178.0122,-17.7038]]],[[[177.1453,-17.7419],[177.182,-17.7374],[177.1911,-17.7662],[177.1598,-17.7621],[177.1453,-17.7419]]],[[[177.1313,-17.7303],[177.1374,-17.7383],[177.1272,-17.7341],[177.1313,-17.7303]]],[[[177.1469,-17.7175],[177.1483,-17.7189],[177.1472,-17.7189],[177.1469,-17.7175]]],[[[177.225,-17.7036],[177.2272,-17.705],[177.2242,-17.7058],[177.225,-17.7036]]],[[[177.2041,-17.8577],[177.2008,-17.8569],[177.2022,-17.8557],[177.2041,-17.8577]]],[[[177.1845,-17.8449],[177.1825,-17.8425],[177.1836,-17.8422],[177.1845,-17.8449]]],[[[177.2049,-17.7678],[177.2023,-17.7799],[177.1857,-17.7848],[177.1931,-17.7667],[177.2049,-17.7678]]],[[[177.1433,-17.7532],[177.1429,-17.7515],[177.144,-17.7515],[177.1433,-17.7532]]],[[[177.0936,-17.6718],[177.1097,-17.6707],[177.1178,-17.6816],[177.0936,-17.6718]]],[[[177.0677,-17.6381],[177.0629,-17.637],[177.0641,-17.6357],[177.0677,-17.6381]]],[[[177.1289,-17.6286],[177.1253,-17.6272],[177.1278,-17.6253],[177.1289,-17.6286]]],[[[177.1001,-17.6171],[177.0931,-17.6258],[177.0835,-17.6188],[177.093,-17.6079],[177.1001,-17.6171]]],[[[177.0356,-17.6064],[177.0347,-17.6125],[177.0294,-17.6087],[177.0356,-17.6064]]],[[[177.0431,-17.5904],[177.0397,-17.6029],[177.0359,-17.5935],[177.0431,-17.5904]]],[[[177.0486,-17.5867],[177.066,-17.5924],[177.0671,-17.603],[177.0486,-17.5867]]],[[[177.0951,-17.5792],[177.0879,-17.5753],[177.0915,-17.5673],[177.0951,-17.5792]]]]}},{"type":"Feature","properties":{"name":"Ra","code":"RA","division":"Western","confederacy":"Kubuna","mainArea":"Viti Levu (NE)","publicationCount":11,"zoteroCollectionKey_publicationLocation":"2NLWQJP4","zoteroCollectionKey_paternalProvince":"WR2IXYLI"},"geometry":{"type":"MultiPolygon","coordinates":[[[[178.2818,-17.6599],[178.2567,-17.6789],[178.2359,-17.6707],[178.2025,-17.6917],[178.1906,-17.6873],[178.1861,-17.6684],[178.1629,-17.6723],[178.1422,-17.6941],[178.0932,-17.659],[178.0961,-17.6507],[178.0843,-17.6503],[178.0718,-17.6068],[178.0602,-17.6053],[178.0436,-17.5834],[178.0171,-17.5668],[177.9821,-17.5687],[177.9854,-17.5555],[177.9642,-17.547],[177.9549,-17.5274],[177.9579,-17.5072],[177.9905,-17.475],[177.9771,-17.4644],[177.9771,-17.4345],[177.9889,-17.423],[177.9631,-17.4133],[177.9815,-17.4034],[178.0039,-17.4058],[178.0172,-17.3644],[178.0361,-17.3711],[178.0603,-17.3594],[178.0767,-17.3622],[178.0844,-17.3739],[178.11,-17.3708],[178.1314,-17.3508],[178.1486,-17.3556],[178.18,-17.3381],[178.1747,-17.3108],[178.1972,-17.3244],[178.2089,-17.3192],[178.2119,-17.3356],[178.2008,-17.3436],[178.2222,-17.3378],[178.2631,-17.3908],[178.2564,-17.4136],[178.2517,-17.4069],[178.2306,-17.4125],[178.2356,-17.4667],[178.2481,-17.47],[178.2428,-17.4572],[178.2569,-17.4625],[178.2772,-17.4347],[178.3083,-17.4403],[178.3344,-17.4561],[178.3333,-17.4781],[178.3453,-17.4808],[178.3361,-17.4972],[178.3589,-17.4911],[178.3428,-17.5122],[178.3595,-17.5089],[178.3736,-17.515],[178.3661,-17.5289],[178.385,-17.5269],[178.3719,-17.5383],[178.3758,-17.5467],[178.3856,-17.5369],[178.3992,-17.5394],[178.4158,-17.5575],[178.4524,-17.5626],[178.452,-17.6093],[178.4427,-17.6127],[178.448,-17.6241],[178.4308,-17.6566],[178.4418,-17.6665],[178.4327,-17.6777],[178.389,-17.6706],[178.3683,-17.6557],[178.3313,-17.6745],[178.2861,-17.6269],[178.2765,-17.6279],[178.2818,-17.6599]]],[[[178.2311,-17.3078],[178.2408,-17.3125],[178.2372,-17.3292],[178.2189,-17.3294],[178.2311,-17.3078]]],[[[178.4678,-17.3156],[178.4658,-17.3139],[178.4664,-17.3133],[178.4678,-17.3156]]],[[[178.2275,-17.3033],[178.2283,-17.3067],[178.2258,-17.3042],[178.2275,-17.3033]]],[[[178.0331,-17.3614],[178.0331,-17.3636],[178.0311,-17.3628],[178.0331,-17.3614]]],[[[178.0325,-17.3528],[178.0361,-17.3578],[178.0305,-17.3553],[178.0325,-17.3528]]],[[[178.0522,-17.345],[178.0639,-17.3467],[178.0633,-17.3503],[178.0522,-17.345]]],[[[178.0664,-17.3414],[178.0675,-17.345],[178.0661,-17.3456],[178.0664,-17.3414]]],[[[178.1564,-17.3089],[178.1489,-17.3328],[178.1261,-17.3189],[178.1361,-17.3125],[178.1564,-17.3089]]],[[[178.2258,-17.2772],[178.2247,-17.3031],[178.2183,-17.3089],[178.2161,-17.2906],[178.1992,-17.2783],[178.2258,-17.2772]]]]}}]}